{
"type": "FeatureCollection",
"name": "DREAL_points_nodaux",
"crs": { "type": "name", "properties": { "name": "urn:ogc:def:crs:OGC:1.3:CRS84" } },
"xy_coordinate_resolution": 1e-15,
"features": [
{ "type": "Feature", "properties": { "fid": 3156, "gid": 2986.0, "CdStationH": "Q110001001", "CdStatio_1": "Q1100020", "LbStationH": "L'Adour à Aire-sur-l'Adour - Ancienne", "TypStation": "LIMNI", "CdCommune": "40001", "CdZoneHydr": "Q110", "CdEntiteHy": "Q---0000", "CdTronconH": "Q1100000", "DtMiseServ": "1913/01/01 00:00:00.000", "DtFermetur": "1946/01/01 01:00:00.000", "CdInterven": "13001089500014", "NomInterve": "DREAL Aquitaine", "LbAffichag": "HydroPortail/Hydro 2", "DtMAJStati": "2016/07/12 08:25:28.000", "DroitPubli": "10", "InfluLocal": "1", "EssaiStati": 0.0, "CoordXStat": 437076.99999999994, "CoordYStat": 6294819.0, "ProjCoordS": "26", "fid_2": 3, "cleabs": "DEPARTEM0000002150000501", "nom_officiel": "Landes", "code_insee": "40", "code_insee_de_la_region": "75", "code_siren": "224000018", "date_creation": "2018-11-24T00:00:00", "date_modification": "2025-03-05T17:46:07.604", "date_d_apparition": null, "date_de_confirmation": null, "liens_vers_autorite_administrative": "SURFACTI0000000018314237" }, "geometry": { "type": "MultiPoint", "coordinates": [ [ -0.262051888048315, 43.703517486336182 ] ] } },
{ "type": "Feature", "properties": { "fid": 3157, "gid": 2987.0, "CdStationH": "Q110001002", "CdStatio_1": "Q1100010", "LbStationH": "L'Adour à Aire-sur-l'Adour", "TypStation": "LIMNI", "CdCommune": "40001", "CdZoneHydr": "Q110", "CdEntiteHy": "Q---0000", "CdTronconH": "Q1100000", "DtMiseServ": "1968/10/01 13:00:00.000", "DtFermetur": null, "CdInterven": "13001089500014", "NomInterve": "DREAL Aquitaine", "LbAffichag": "Vigicrues/HydroPortail/Hydro 2", "DtMAJStati": "2017/04/11 09:41:06.000", "DroitPubli": "11", "InfluLocal": "1", "EssaiStati": 0.0, "CoordXStat": 437084.0, "CoordYStat": 6294861.0, "ProjCoordS": "26", "fid_2": 3, "cleabs": "DEPARTEM0000002150000501", "nom_officiel": "Landes", "code_insee": "40", "code_insee_de_la_region": "75", "code_siren": "224000018", "date_creation": "2018-11-24T00:00:00", "date_modification": "2025-03-05T17:46:07.604", "date_d_apparition": null, "date_de_confirmation": null, "liens_vers_autorite_administrative": "SURFACTI0000000018314237" }, "geometry": { "type": "MultiPoint", "coordinates": [ [ -0.261986652961063, 43.703897692456259 ] ] } },
{ "type": "Feature", "properties": { "fid": 3158, "gid": 2988.0, "CdStationH": "Q110501001", "CdStatio_1": "Q1105010", "LbStationH": "Le ruisseau des Arribauts à Aire-sur-l'Adour", "TypStation": "LIMNI", "CdCommune": "40001", "CdZoneHydr": "Q110", "CdEntiteHy": "Q1100500", "CdTronconH": "Q1100500", "DtMiseServ": "1968/10/01 01:00:00.000", "DtFermetur": null, "CdInterven": "13001089500014", "NomInterve": "DREAL Aquitaine", "LbAffichag": "HydroPortail/Hydro 2", "DtMAJStati": "2016/07/12 08:25:12.000", "DroitPubli": "10", "InfluLocal": "3", "EssaiStati": 0.0, "CoordXStat": 437018.0, "CoordYStat": 6294725.0, "ProjCoordS": "26", "fid_2": 3, "cleabs": "DEPARTEM0000002150000501", "nom_officiel": "Landes", "code_insee": "40", "code_insee_de_la_region": "75", "code_siren": "224000018", "date_creation": "2018-11-24T00:00:00", "date_modification": "2025-03-05T17:46:07.604", "date_d_apparition": null, "date_de_confirmation": null, "liens_vers_autorite_administrative": "SURFACTI0000000018314237" }, "geometry": { "type": "MultiPoint", "coordinates": [ [ -0.26273489869592, 43.702650443227917 ] ] } },
{ "type": "Feature", "properties": { "fid": 3159, "gid": 2989.0, "CdStationH": "Q116001001", "CdStatio_1": "Q1160010", "LbStationH": "L'Adour à Grenade-sur-l'Adour", "TypStation": "LIMNI", "CdCommune": "40117", "CdZoneHydr": "Q113", "CdEntiteHy": "Q---0000", "CdTronconH": "Q1130000", "DtMiseServ": "1993/10/18 01:00:00.000", "DtFermetur": null, "CdInterven": "13001089500014", "NomInterve": "DREAL Aquitaine", "LbAffichag": "Vigicrues/HydroPortail/Hydro 2", "DtMAJStati": "2017/01/24 15:04:35.000", "DroitPubli": "11", "InfluLocal": "2", "EssaiStati": 0.0, "CoordXStat": 424039.00000000006, "CoordYStat": 6302977.0, "ProjCoordS": "26", "fid_2": 3, "cleabs": "DEPARTEM0000002150000501", "nom_officiel": "Landes", "code_insee": "40", "code_insee_de_la_region": "75", "code_siren": "224000018", "date_creation": "2018-11-24T00:00:00", "date_modification": "2025-03-05T17:46:07.604", "date_d_apparition": null, "date_de_confirmation": null, "liens_vers_autorite_administrative": "SURFACTI0000000018314237" }, "geometry": { "type": "MultiPoint", "coordinates": [ [ -0.428005865650098, 43.771892613908918 ] ] } },
{ "type": "Feature", "properties": { "fid": 3160, "gid": 2990.0, "CdStationH": "Q122402001", "CdStatio_1": "Q1224010", "LbStationH": "Le Bahus à Eugénie-les-Bains", "TypStation": "LIMNI", "CdCommune": "40097", "CdZoneHydr": "Q122", "CdEntiteHy": "Q12-0400", "CdTronconH": "Q1220400", "DtMiseServ": "1969/09/01 13:00:00.000", "DtFermetur": "2000/03/05 01:00:00.000", "CdInterven": "13001089500014", "NomInterve": "DREAL Aquitaine", "LbAffichag": "HydroPortail/Hydro 2", "DtMAJStati": "2016/10/04 14:54:33.000", "DroitPubli": "11", "InfluLocal": "2", "EssaiStati": 0.0, "CoordXStat": 427776.99999999994, "CoordYStat": 6294444.0, "ProjCoordS": "26", "fid_2": 3, "cleabs": "DEPARTEM0000002150000501", "nom_officiel": "Landes", "code_insee": "40", "code_insee_de_la_region": "75", "code_siren": "224000018", "date_creation": "2018-11-24T00:00:00", "date_modification": "2025-03-05T17:46:07.604", "date_d_apparition": null, "date_de_confirmation": null, "liens_vers_autorite_administrative": "SURFACTI0000000018314237" }, "geometry": { "type": "MultiPoint", "coordinates": [ [ -0.377098670868043, 43.696629105414431 ] ] } },
{ "type": "Feature", "properties": { "fid": 3161, "gid": 2991.0, "CdStationH": "Q122402002", "CdStatio_1": "Q1224020", "LbStationH": "Le Bahus à Classun", "TypStation": "LIMNI", "CdCommune": "40082", "CdZoneHydr": "Q122", "CdEntiteHy": "Q12-0400", "CdTronconH": "Q1220400", "DtMiseServ": "1999/07/28 02:00:00.000", "DtFermetur": null, "CdInterven": "13001089500014", "NomInterve": "DREAL Aquitaine", "LbAffichag": "HydroPortail/Hydro 2", "DtMAJStati": "2016/10/04 14:56:16.000", "DroitPubli": "11", "InfluLocal": "2", "EssaiStati": 0.0, "CoordXStat": 425554.0, "CoordYStat": 6296246.0, "ProjCoordS": "26", "fid_2": 3, "cleabs": "DEPARTEM0000002150000501", "nom_officiel": "Landes", "code_insee": "40", "code_insee_de_la_region": "75", "code_siren": "224000018", "date_creation": "2018-11-24T00:00:00", "date_modification": "2025-03-05T17:46:07.604", "date_d_apparition": null, "date_de_confirmation": null, "liens_vers_autorite_administrative": "SURFACTI0000000018314237" }, "geometry": { "type": "MultiPoint", "coordinates": [ [ -0.405605913485599, 43.711970186312165 ] ] } },
{ "type": "Feature", "properties": { "fid": 3162, "gid": 2992.0, "CdStationH": "Q124001001", "CdStatio_1": "Q1240010", "LbStationH": "L'Adour à Saint-Sever", "TypStation": "LIMNI", "CdCommune": "40282", "CdZoneHydr": "Q124", "CdEntiteHy": "Q---0000", "CdTronconH": "Q1240000", "DtMiseServ": "1993/01/01 01:00:00.000", "DtFermetur": null, "CdInterven": "13001089500014", "NomInterve": "DREAL Aquitaine", "LbAffichag": "Vigicrues/HydroPortail/Hydro 2", "DtMAJStati": "2016/09/29 10:50:35.000", "DroitPubli": "11", "InfluLocal": "1", "EssaiStati": 0.0, "CoordXStat": 412624.0, "CoordYStat": 6302883.0, "ProjCoordS": "26", "fid_2": 3, "cleabs": "DEPARTEM0000002150000501", "nom_officiel": "Landes", "code_insee": "40", "code_insee_de_la_region": "75", "code_siren": "224000018", "date_creation": "2018-11-24T00:00:00", "date_modification": "2025-03-05T17:46:07.604", "date_d_apparition": null, "date_de_confirmation": null, "liens_vers_autorite_administrative": "SURFACTI0000000018314237" }, "geometry": { "type": "MultiPoint", "coordinates": [ [ -0.569561725091285, 43.766497609521863 ] ] } },
{ "type": "Feature", "properties": { "fid": 3165, "gid": 2995.0, "CdStationH": "Q138571001", "CdStatio_1": "Q1385710", "LbStationH": "Le ruisseau de Laudon à Audignon", "TypStation": "LIMNI", "CdCommune": "40017", "CdZoneHydr": "Q138", "CdEntiteHy": "Q1380500", "CdTronconH": "Q1380500", "DtMiseServ": "1988/07/29 02:00:00.000", "DtFermetur": null, "CdInterven": "13001089500014", "NomInterve": "DREAL Aquitaine", "LbAffichag": "HydroPortail/Hydro 2", "DtMAJStati": "2016/07/12 08:25:04.000", "DroitPubli": "10", "InfluLocal": "3", "EssaiStati": 0.0, "CoordXStat": 409756.99999999994, "CoordYStat": 6299230.0, "ProjCoordS": "26", "fid_2": 3, "cleabs": "DEPARTEM0000002150000501", "nom_officiel": "Landes", "code_insee": "40", "code_insee_de_la_region": "75", "code_siren": "224000018", "date_creation": "2018-11-24T00:00:00", "date_modification": "2025-03-05T17:46:07.604", "date_d_apparition": null, "date_de_confirmation": null, "liens_vers_autorite_administrative": "SURFACTI0000000018314237" }, "geometry": { "type": "MultiPoint", "coordinates": [ [ -0.603055169164112, 43.732488532673081 ] ] } },
{ "type": "Feature", "properties": { "fid": 3166, "gid": 2996.0, "CdStationH": "Q142001001", "CdStatio_1": "Q1420010", "LbStationH": "L'Adour à Onard - Audon", "TypStation": "LIMNI", "CdCommune": "40208", "CdZoneHydr": "Q142", "CdEntiteHy": "Q---0000", "CdTronconH": "Q1420000", "DtMiseServ": "1974/01/01 01:00:00.000", "DtFermetur": null, "CdInterven": "13001089500014", "NomInterve": "DREAL Aquitaine", "LbAffichag": "Vigicrues/HydroPortail/Hydro 2", "DtMAJStati": "2016/09/29 11:03:41.000", "DroitPubli": "11", "InfluLocal": "1", "EssaiStati": 0.0, "CoordXStat": 391292.0, "CoordYStat": 6306419.0, "ProjCoordS": "26", "fid_2": 3, "cleabs": "DEPARTEM0000002150000501", "nom_officiel": "Landes", "code_insee": "40", "code_insee_de_la_region": "75", "code_siren": "224000018", "date_creation": "2018-11-24T00:00:00", "date_modification": "2025-03-05T17:46:07.604", "date_d_apparition": null, "date_de_confirmation": null, "liens_vers_autorite_administrative": "SURFACTI0000000018314237" }, "geometry": { "type": "MultiPoint", "coordinates": [ [ -0.836261292922822, 43.789283466136098 ] ] } },
{ "type": "Feature", "properties": { "fid": 3168, "gid": 2998.0, "CdStationH": "Q215251001", "CdStatio_1": "Q2152510", "LbStationH": "La Midouze [Le Midou] à Villeneuve-de-Marsan", "TypStation": "LIMNI", "CdCommune": "40331", "CdZoneHydr": "Q215", "CdEntiteHy": "Q2--0250", "CdTronconH": "Q2150250", "DtMiseServ": "1911/01/01 00:09:21.000", "DtFermetur": null, "CdInterven": "13001089500014", "NomInterve": "DREAL Aquitaine", "LbAffichag": "Vigicrues/HydroPortail/Hydro 2", "DtMAJStati": "2017/04/13 09:20:05.000", "DroitPubli": "11", "InfluLocal": "1", "EssaiStati": 0.0, "CoordXStat": 434596.0, "CoordYStat": 6316996.0, "ProjCoordS": "26", "fid_2": 3, "cleabs": "DEPARTEM0000002150000501", "nom_officiel": "Landes", "code_insee": "40", "code_insee_de_la_region": "75", "code_siren": "224000018", "date_creation": "2018-11-24T00:00:00", "date_modification": "2025-03-05T17:46:07.604", "date_d_apparition": null, "date_de_confirmation": null, "liens_vers_autorite_administrative": "SURFACTI0000000018314237" }, "geometry": { "type": "MultiPoint", "coordinates": [ [ -0.304304964311745, 43.901984184804668 ] ] } },
{ "type": "Feature", "properties": { "fid": 3169, "gid": 2999.0, "CdStationH": "Q219252001", "CdStatio_1": "Q2192510", "LbStationH": "La Midouze [Le Midou] à Mont-de-Marsan", "TypStation": "LIMNI", "CdCommune": "40192", "CdZoneHydr": "Q219", "CdEntiteHy": "Q2--0250", "CdTronconH": "Q2190250", "DtMiseServ": "1967/01/01 01:00:00.000", "DtFermetur": "2011/03/14 01:00:00.000", "CdInterven": "13001089500014", "NomInterve": "DREAL Aquitaine", "LbAffichag": "HydroPortail/Hydro 2", "DtMAJStati": "2016/09/29 10:57:15.000", "DroitPubli": "11", "InfluLocal": "1", "EssaiStati": 0.0, "CoordXStat": 420426.0, "CoordYStat": 6317096.0, "ProjCoordS": "26", "fid_2": 3, "cleabs": "DEPARTEM0000002150000501", "nom_officiel": "Landes", "code_insee": "40", "code_insee_de_la_region": "75", "code_siren": "224000018", "date_creation": "2018-11-24T00:00:00", "date_modification": "2025-03-05T17:46:07.604", "date_d_apparition": null, "date_de_confirmation": null, "liens_vers_autorite_administrative": "SURFACTI0000000018314237" }, "geometry": { "type": "MultiPoint", "coordinates": [ [ -0.480555009328454, 43.897406337398195 ] ] } },
{ "type": "Feature", "properties": { "fid": 3170, "gid": 3000.0, "CdStationH": "Q219252002", "CdStatio_1": "Q2192520", "LbStationH": "La Midouze [Le Midou] à Mont-de-Marsan", "TypStation": "LIMNI", "CdCommune": "40192", "CdZoneHydr": "Q219", "CdEntiteHy": "Q2--0250", "CdTronconH": "Q2190250", "DtMiseServ": "2009/11/01 01:00:00.000", "DtFermetur": null, "CdInterven": "13001089500014", "NomInterve": "DREAL Aquitaine", "LbAffichag": "HydroPortail/Hydro 2", "DtMAJStati": "2016/09/29 10:58:02.000", "DroitPubli": "11", "InfluLocal": "1", "EssaiStati": 0.0, "CoordXStat": 418692.99999999994, "CoordYStat": 6316536.0, "ProjCoordS": "26", "fid_2": 3, "cleabs": "DEPARTEM0000002150000501", "nom_officiel": "Landes", "code_insee": "40", "code_insee_de_la_region": "75", "code_siren": "224000018", "date_creation": "2018-11-24T00:00:00", "date_modification": "2025-03-05T17:46:07.604", "date_d_apparition": null, "date_de_confirmation": null, "liens_vers_autorite_administrative": "SURFACTI0000000018314237" }, "geometry": { "type": "MultiPoint", "coordinates": [ [ -0.501792815319322, 43.891682309038764 ] ] } },
{ "type": "Feature", "properties": { "fid": 3172, "gid": 3002.0, "CdStationH": "Q229291001", "CdStatio_1": "Q2292910", "LbStationH": "La Douze à Roquefort", "TypStation": "LIMNI", "CdCommune": "40245", "CdZoneHydr": "Q240", "CdEntiteHy": "Q2--0290", "CdTronconH": "Q2400290", "DtMiseServ": "1969/12/04 18:00:00.000", "DtFermetur": null, "CdInterven": "13001089500014", "NomInterve": "DREAL Aquitaine", "LbAffichag": "HydroPortail/Hydro 2", "DtMAJStati": "2016/09/28 16:11:13.000", "DroitPubli": "11", "InfluLocal": "2", "EssaiStati": 0.0, "CoordXStat": 431992.99999999994, "CoordYStat": 6331818.9999999991, "ProjCoordS": "26", "fid_2": 3, "cleabs": "DEPARTEM0000002150000501", "nom_officiel": "Landes", "code_insee": "40", "code_insee_de_la_region": "75", "code_siren": "224000018", "date_creation": "2018-11-24T00:00:00", "date_modification": "2025-03-05T17:46:07.604", "date_d_apparition": null, "date_de_confirmation": null, "liens_vers_autorite_administrative": "SURFACTI0000000018314237" }, "geometry": { "type": "MultiPoint", "coordinates": [ [ -0.344486023516045, 44.034283159139122 ] ] } },
{ "type": "Feature", "properties": { "fid": 3173, "gid": 3003.0, "CdStationH": "Q235401001", "CdStatio_1": "Q2354010", "LbStationH": "L'Estampon à Retjons", "TypStation": "LIMNI", "CdCommune": "40164", "CdZoneHydr": "Q234", "CdEntiteHy": "Q23-0400", "CdTronconH": "Q2340400", "DtMiseServ": "1969/09/10 11:00:00.000", "DtFermetur": "1988/07/29 14:00:00.000", "CdInterven": "13001089500014", "NomInterve": "DREAL Aquitaine", "LbAffichag": "HydroPortail/Hydro 2", "DtMAJStati": "2016/07/12 08:25:18.000", "DroitPubli": "10", "InfluLocal": "1", "EssaiStati": 0.0, "CoordXStat": 437850.0, "CoordYStat": 6337008.0000000009, "ProjCoordS": "26", "fid_2": 3, "cleabs": "DEPARTEM0000002150000501", "nom_officiel": "Landes", "code_insee": "40", "code_insee_de_la_region": "75", "code_siren": "224000018", "date_creation": "2018-11-24T00:00:00", "date_modification": "2025-03-05T17:46:07.604", "date_d_apparition": null, "date_de_confirmation": null, "liens_vers_autorite_administrative": "SURFACTI0000000018314237" }, "geometry": { "type": "MultiPoint", "coordinates": [ [ -0.274164028004732, 44.083152836054921 ] ] } },
{ "type": "Feature", "properties": { "fid": 3174, "gid": 3004.0, "CdStationH": "Q236401001", "CdStatio_1": "Q2364010", "LbStationH": "L'Estampon à Arue", "TypStation": "LIMNI", "CdCommune": "40014", "CdZoneHydr": "Q236", "CdEntiteHy": "Q23-0400", "CdTronconH": "Q2360400", "DtMiseServ": "1995/10/11 13:00:00.000", "DtFermetur": null, "CdInterven": "13001089500014", "NomInterve": "DREAL Aquitaine", "LbAffichag": "HydroPortail/Hydro 2", "DtMAJStati": "2016/09/28 16:11:45.000", "DroitPubli": "11", "InfluLocal": "1", "EssaiStati": 0.0, "CoordXStat": 437016.99999999994, "CoordYStat": 6335081.0, "ProjCoordS": "26", "fid_2": 3, "cleabs": "DEPARTEM0000002150000501", "nom_officiel": "Landes", "code_insee": "40", "code_insee_de_la_region": "75", "code_siren": "224000018", "date_creation": "2018-11-24T00:00:00", "date_modification": "2025-03-05T17:46:07.604", "date_d_apparition": null, "date_de_confirmation": null, "liens_vers_autorite_administrative": "SURFACTI0000000018314237" }, "geometry": { "type": "MultiPoint", "coordinates": [ [ -0.283555696449355, 44.065513010767511 ] ] } },
{ "type": "Feature", "properties": { "fid": 3175, "gid": 3005.0, "CdStationH": "Q240291001", "CdStatio_1": "Q2402910", "LbStationH": "La Douze à Roquefort [1]", "TypStation": "LIMNI", "CdCommune": "40245", "CdZoneHydr": "Q240", "CdEntiteHy": "Q2--0290", "CdTronconH": "Q2400290", "DtMiseServ": "1911/01/01 00:09:21.000", "DtFermetur": "1944/01/01 01:00:00.000", "CdInterven": "13001089500014", "NomInterve": "DREAL Aquitaine", "LbAffichag": "HydroPortail/Hydro 2", "DtMAJStati": "2016/09/28 16:12:18.000", "DroitPubli": "11", "InfluLocal": "1", "EssaiStati": 0.0, "CoordXStat": 432746.0, "CoordYStat": 6331813.0, "ProjCoordS": "26", "fid_2": 3, "cleabs": "DEPARTEM0000002150000501", "nom_officiel": "Landes", "code_insee": "40", "code_insee_de_la_region": "75", "code_siren": "224000018", "date_creation": "2018-11-24T00:00:00", "date_modification": "2025-03-05T17:46:07.604", "date_d_apparition": null, "date_de_confirmation": null, "liens_vers_autorite_administrative": "SURFACTI0000000018314237" }, "geometry": { "type": "MultiPoint", "coordinates": [ [ -0.335097288140553, 44.034515763726041 ] ] } },
{ "type": "Feature", "properties": { "fid": 3176, "gid": 3006.0, "CdStationH": "Q240291002", "CdStatio_1": "Q2402910", "LbStationH": "La Douze à Roquefort [1] - Petit Coutchon", "TypStation": "LIMNI", "CdCommune": "40245", "CdZoneHydr": "Q240", "CdEntiteHy": "Q2--0290", "CdTronconH": "Q2400290", "DtMiseServ": "1991/12/02 01:00:00.000", "DtFermetur": null, "CdInterven": "13001089500014", "NomInterve": "DREAL Aquitaine", "LbAffichag": "Vigicrues/HydroPortail/Hydro 2", "DtMAJStati": "2016/12/22 16:55:47.000", "DroitPubli": "11", "InfluLocal": "1", "EssaiStati": 0.0, "CoordXStat": 431992.99999999994, "CoordYStat": 6331818.9999999991, "ProjCoordS": "26", "fid_2": 3, "cleabs": "DEPARTEM0000002150000501", "nom_officiel": "Landes", "code_insee": "40", "code_insee_de_la_region": "75", "code_siren": "224000018", "date_creation": "2018-11-24T00:00:00", "date_modification": "2025-03-05T17:46:07.604", "date_d_apparition": null, "date_de_confirmation": null, "liens_vers_autorite_administrative": "SURFACTI0000000018314237" }, "geometry": { "type": "MultiPoint", "coordinates": [ [ -0.344486023516045, 44.034283159139122 ] ] } },
{ "type": "Feature", "properties": { "fid": 3177, "gid": 3007.0, "CdStationH": "Q241431001", "CdStatio_1": "Q2414310", "LbStationH": "Le ruisseau de l'Estrigon à Cachen [1]", "TypStation": "LIMNI", "CdCommune": "40058", "CdZoneHydr": "Q254", "CdEntiteHy": "Q25-0430", "CdTronconH": "Q2540430", "DtMiseServ": "1993/09/03 16:10:00.000", "DtFermetur": "1997/01/01 01:00:00.000", "CdInterven": "13001089500014", "NomInterve": "DREAL Aquitaine", "LbAffichag": "HydroPortail/Hydro 2", "DtMAJStati": "2016/07/12 08:24:47.000", "DroitPubli": "10", "InfluLocal": "1", "EssaiStati": 0.0, "CoordXStat": 415330.0, "CoordYStat": 6326129.0, "ProjCoordS": "26", "fid_2": 3, "cleabs": "DEPARTEM0000002150000501", "nom_officiel": "Landes", "code_insee": "40", "code_insee_de_la_region": "75", "code_siren": "224000018", "date_creation": "2018-11-24T00:00:00", "date_modification": "2025-03-05T17:46:07.604", "date_d_apparition": null, "date_de_confirmation": null, "liens_vers_autorite_administrative": "SURFACTI0000000018314237" }, "geometry": { "type": "MultiPoint", "coordinates": [ [ -0.548964057878636, 43.97657829334009 ] ] } },
{ "type": "Feature", "properties": { "fid": 3178, "gid": 3008.0, "CdStationH": "Q241431101", "CdStatio_1": "Q2414311", "LbStationH": "La Gouaneyre [rivière] à Cachen", "TypStation": "LIMNI", "CdCommune": "40058", "CdZoneHydr": "Q241", "CdEntiteHy": "Q24-0430", "CdTronconH": "Q2410430", "DtMiseServ": "1997/01/15 01:00:00.000", "DtFermetur": null, "CdInterven": "13001089500014", "NomInterve": "DREAL Aquitaine", "LbAffichag": "HydroPortail/Hydro 2", "DtMAJStati": "2016/07/12 08:24:55.000", "DroitPubli": "10", "InfluLocal": "1", "EssaiStati": 0.0, "CoordXStat": 424724.0, "CoordYStat": 6336731.0, "ProjCoordS": "26", "fid_2": 3, "cleabs": "DEPARTEM0000002150000501", "nom_officiel": "Landes", "code_insee": "40", "code_insee_de_la_region": "75", "code_siren": "224000018", "date_creation": "2018-11-24T00:00:00", "date_modification": "2025-03-05T17:46:07.604", "date_d_apparition": null, "date_de_confirmation": null, "liens_vers_autorite_administrative": "SURFACTI0000000018314237" }, "geometry": { "type": "MultiPoint", "coordinates": [ [ -0.437750603272098, 44.0756425630601 ] ] } },
{ "type": "Feature", "properties": { "fid": 3179, "gid": 3009.0, "CdStationH": "Q241431201", "CdStatio_1": "Q2414312", "LbStationH": "La Gouaneyre [canal] à Cachen", "TypStation": "LIMNI", "CdCommune": "40058", "CdZoneHydr": "Q241", "CdEntiteHy": "Q24-0430", "CdTronconH": "Q2410430", "DtMiseServ": "1997/01/15 01:00:00.000", "DtFermetur": null, "CdInterven": "13001089500014", "NomInterve": "DREAL Aquitaine", "LbAffichag": "HydroPortail/Hydro 2", "DtMAJStati": "2016/07/12 08:25:01.000", "DroitPubli": "10", "InfluLocal": "1", "EssaiStati": 0.0, "CoordXStat": 424724.0, "CoordYStat": 6336731.0, "ProjCoordS": "26", "fid_2": 3, "cleabs": "DEPARTEM0000002150000501", "nom_officiel": "Landes", "code_insee": "40", "code_insee_de_la_region": "75", "code_siren": "224000018", "date_creation": "2018-11-24T00:00:00", "date_modification": "2025-03-05T17:46:07.604", "date_d_apparition": null, "date_de_confirmation": null, "liens_vers_autorite_administrative": "SURFACTI0000000018314237" }, "geometry": { "type": "MultiPoint", "coordinates": [ [ -0.437750603272098, 44.0756425630601 ] ] } },
{ "type": "Feature", "properties": { "fid": 3180, "gid": 3010.0, "CdStationH": "Q241431301", "CdStatio_1": "Q2414313", "LbStationH": "La Gouaneyre à Cachen", "TypStation": "LIMNI", "CdCommune": "40058", "CdZoneHydr": "Q241", "CdEntiteHy": "Q24-0430", "CdTronconH": "Q2410430", "DtMiseServ": "2002/04/03 02:00:00.000", "DtFermetur": "2009/01/22 01:00:00.000", "CdInterven": "13001089500014", "NomInterve": "DREAL Aquitaine", "LbAffichag": "HydroPortail/Hydro 2", "DtMAJStati": "2016/07/12 08:24:51.000", "DroitPubli": "10", "InfluLocal": "1", "EssaiStati": 0.0, "CoordXStat": 424724.0, "CoordYStat": 6336731.0, "ProjCoordS": "26", "fid_2": 3, "cleabs": "DEPARTEM0000002150000501", "nom_officiel": "Landes", "code_insee": "40", "code_insee_de_la_region": "75", "code_siren": "224000018", "date_creation": "2018-11-24T00:00:00", "date_modification": "2025-03-05T17:46:07.604", "date_d_apparition": null, "date_de_confirmation": null, "liens_vers_autorite_administrative": "SURFACTI0000000018314237" }, "geometry": { "type": "MultiPoint", "coordinates": [ [ -0.437750603272098, 44.0756425630601 ] ] } },
{ "type": "Feature", "properties": { "fid": 3181, "gid": 3011.0, "CdStationH": "Q242431001", "CdStatio_1": "Q2424310", "LbStationH": "La Gouaneyre à Arue [Téchené]", "TypStation": "LIMNI", "CdCommune": "40014", "CdZoneHydr": "Q242", "CdEntiteHy": "Q24-0430", "CdTronconH": "Q2420430", "DtMiseServ": "2010/11/22 01:00:00.000", "DtFermetur": null, "CdInterven": "13001089500014", "NomInterve": "DREAL Aquitaine", "LbAffichag": "HydroPortail/Hydro 2", "DtMAJStati": "2016/09/28 16:13:26.000", "DroitPubli": "11", "InfluLocal": "1", "EssaiStati": 0.0, "CoordXStat": 425608.99999999994, "CoordYStat": 6332848.0000000009, "ProjCoordS": "26", "fid_2": 3, "cleabs": "DEPARTEM0000002150000501", "nom_officiel": "Landes", "code_insee": "40", "code_insee_de_la_region": "75", "code_siren": "224000018", "date_creation": "2018-11-24T00:00:00", "date_modification": "2025-03-05T17:46:07.604", "date_d_apparition": null, "date_de_confirmation": null, "liens_vers_autorite_administrative": "SURFACTI0000000018314237" }, "geometry": { "type": "MultiPoint", "coordinates": [ [ -0.424610473966621, 44.04107376211153 ] ] } },
{ "type": "Feature", "properties": { "fid": 3182, "gid": 3012.0, "CdStationH": "Q250331001", "CdStatio_1": "Q2503310", "LbStationH": "La Midouze à Mont-de-Marsan [1]", "TypStation": "LIMNI", "CdCommune": "40192", "CdZoneHydr": "Q250", "CdEntiteHy": "Q2--0250", "CdTronconH": "Q2500250", "DtMiseServ": "1912/01/01 00:00:00.000", "DtFermetur": "1962/01/01 01:00:00.000", "CdInterven": "13001089500014", "NomInterve": "DREAL Aquitaine", "LbAffichag": "HydroPortail/Hydro 2", "DtMAJStati": "2016/07/12 08:24:50.000", "DroitPubli": "10", "InfluLocal": "1", "EssaiStati": 0.0, "CoordXStat": 418584.99999999994, "CoordYStat": 6316462.0, "ProjCoordS": "26", "fid_2": 3, "cleabs": "DEPARTEM0000002150000501", "nom_officiel": "Landes", "code_insee": "40", "code_insee_de_la_region": "75", "code_siren": "224000018", "date_creation": "2018-11-24T00:00:00", "date_modification": "2025-03-05T17:46:07.604", "date_d_apparition": null, "date_de_confirmation": null, "liens_vers_autorite_administrative": "SURFACTI0000000018314237" }, "geometry": { "type": "MultiPoint", "coordinates": [ [ -0.503094628080199, 43.890973916891291 ] ] } },
{ "type": "Feature", "properties": { "fid": 3183, "gid": 3013.0, "CdStationH": "Q250332001", "CdStatio_1": "Q2503320", "LbStationH": "La Midouze à Mont-de-Marsan", "TypStation": "LIMNI", "CdCommune": "40192", "CdZoneHydr": "Q250", "CdEntiteHy": "Q2--0250", "CdTronconH": "Q2500250", "DtMiseServ": "1993/01/01 01:00:00.000", "DtFermetur": null, "CdInterven": "13001089500014", "NomInterve": "DREAL Aquitaine", "LbAffichag": "Vigicrues/HydroPortail/Hydro 2", "DtMAJStati": "2017/04/12 16:22:51.000", "DroitPubli": "11", "InfluLocal": "1", "EssaiStati": 0.0, "CoordXStat": 418644.0, "CoordYStat": 6316430.0, "ProjCoordS": "26", "fid_2": 3, "cleabs": "DEPARTEM0000002150000501", "nom_officiel": "Landes", "code_insee": "40", "code_insee_de_la_region": "75", "code_siren": "224000018", "date_creation": "2018-11-24T00:00:00", "date_modification": "2025-03-05T17:46:07.604", "date_d_apparition": null, "date_de_confirmation": null, "liens_vers_autorite_administrative": "SURFACTI0000000018314237" }, "geometry": { "type": "MultiPoint", "coordinates": [ [ -0.502343493897751, 43.890709766917048 ] ] } },
{ "type": "Feature", "properties": { "fid": 3184, "gid": 3014.0, "CdStationH": "Q254431001", "CdStatio_1": "Q2544310", "LbStationH": "Le ruisseau de l'Estrigon à Cère", "TypStation": "LIMNI", "CdCommune": "40081", "CdZoneHydr": "Q254", "CdEntiteHy": "Q25-0430", "CdTronconH": "Q2540430", "DtMiseServ": "1990/09/21 12:50:00.000", "DtFermetur": null, "CdInterven": "13001089500014", "NomInterve": "DREAL Aquitaine", "LbAffichag": "HydroPortail/Hydro 2", "DtMAJStati": "2016/09/29 11:03:32.000", "DroitPubli": "11", "InfluLocal": "1", "EssaiStati": 0.0, "CoordXStat": 415330.0, "CoordYStat": 6326129.0, "ProjCoordS": "26", "fid_2": 3, "cleabs": "DEPARTEM0000002150000501", "nom_officiel": "Landes", "code_insee": "40", "code_insee_de_la_region": "75", "code_siren": "224000018", "date_creation": "2018-11-24T00:00:00", "date_modification": "2025-03-05T17:46:07.604", "date_d_apparition": null, "date_de_confirmation": null, "liens_vers_autorite_administrative": "SURFACTI0000000018314237" }, "geometry": { "type": "MultiPoint", "coordinates": [ [ -0.548964057878636, 43.97657829334009 ] ] } },
{ "type": "Feature", "properties": { "fid": 3185, "gid": 3015.0, "CdStationH": "Q255431001", "CdStatio_1": "Q2554310", "LbStationH": "Le ruisseau de l'Estrigon à Campet-et-Lamolère", "TypStation": "LIMNI", "CdCommune": "40062", "CdZoneHydr": "Q255", "CdEntiteHy": "Q25-0430", "CdTronconH": "Q2550430", "DtMiseServ": "1987/07/02 20:00:00.000", "DtFermetur": "1991/01/04 09:00:00.000", "CdInterven": "13001089500014", "NomInterve": "DREAL Aquitaine", "LbAffichag": "HydroPortail/Hydro 2", "DtMAJStati": "2016/07/12 08:24:50.000", "DroitPubli": "10", "InfluLocal": "1", "EssaiStati": 0.0, "CoordXStat": 413948.99999999994, "CoordYStat": 6319510.0, "ProjCoordS": "26", "fid_2": 3, "cleabs": "DEPARTEM0000002150000501", "nom_officiel": "Landes", "code_insee": "40", "code_insee_de_la_region": "75", "code_siren": "224000018", "date_creation": "2018-11-24T00:00:00", "date_modification": "2025-03-05T17:46:07.604", "date_d_apparition": null, "date_de_confirmation": null, "liens_vers_autorite_administrative": "SURFACTI0000000018314237" }, "geometry": { "type": "MultiPoint", "coordinates": [ [ -0.562437232317342, 43.916510665315862 ] ] } },
{ "type": "Feature", "properties": { "fid": 3186, "gid": 3016.0, "CdStationH": "Q258461001", "CdStatio_1": "Q2584610", "LbStationH": "Le ruisseau de Geloux à Saint-Martin-d'Oney", "TypStation": "LIMNI", "CdCommune": "40274", "CdZoneHydr": "Q258", "CdEntiteHy": "Q25-0460", "CdTronconH": "Q2580460", "DtMiseServ": "1993/09/15 16:20:00.000", "DtFermetur": null, "CdInterven": "13001089500014", "NomInterve": "DREAL Aquitaine", "LbAffichag": "HydroPortail/Hydro 2", "DtMAJStati": "2017/04/04 16:15:31.000", "DroitPubli": "11", "InfluLocal": "1", "EssaiStati": 0.0, "CoordXStat": 408816.0, "CoordYStat": 6321501.0, "ProjCoordS": "26", "fid_2": 3, "cleabs": "DEPARTEM0000002150000501", "nom_officiel": "Landes", "code_insee": "40", "code_insee_de_la_region": "75", "code_siren": "224000018", "date_creation": "2018-11-24T00:00:00", "date_modification": "2025-03-05T17:46:07.604", "date_d_apparition": null, "date_de_confirmation": null, "liens_vers_autorite_administrative": "SURFACTI0000000018314237" }, "geometry": { "type": "MultiPoint", "coordinates": [ [ -0.62741205327922, 43.932307757131454 ] ] } },
{ "type": "Feature", "properties": { "fid": 3187, "gid": 3017.0, "CdStationH": "Q259331001", "CdStatio_1": "Q2593310", "LbStationH": "La Midouze à Campagne", "TypStation": "LIMNI", "CdCommune": "40061", "CdZoneHydr": "Q259", "CdEntiteHy": "Q2--0250", "CdTronconH": "Q2590250", "DtMiseServ": "1967/01/01 13:00:00.000", "DtFermetur": null, "CdInterven": "13001089500014", "NomInterve": "DREAL Aquitaine", "LbAffichag": "Vigicrues/HydroPortail/Hydro 2", "DtMAJStati": "2017/03/24 15:00:56.000", "DroitPubli": "11", "InfluLocal": "1", "EssaiStati": 0.0, "CoordXStat": 406144.99999999994, "CoordYStat": 6318880.0, "ProjCoordS": "26", "fid_2": 3, "cleabs": "DEPARTEM0000002150000501", "nom_officiel": "Landes", "code_insee": "40", "code_insee_de_la_region": "75", "code_siren": "224000018", "date_creation": "2018-11-24T00:00:00", "date_modification": "2025-03-05T17:46:07.604", "date_d_apparition": null, "date_de_confirmation": null, "liens_vers_autorite_administrative": "SURFACTI0000000018314237" }, "geometry": { "type": "MultiPoint", "coordinates": [ [ -0.659126535554017, 43.907636517493899 ] ] } },
{ "type": "Feature", "properties": { "fid": 3188, "gid": 3018.0, "CdStationH": "Q265401001", "CdStatio_1": "Q2654010", "LbStationH": "Le Bès à Saint-Yaguen", "TypStation": "LIMNI", "CdCommune": "40285", "CdZoneHydr": "Q265", "CdEntiteHy": "Q26-0400", "CdTronconH": "Q2650400", "DtMiseServ": "2000/01/01 01:00:00.000", "DtFermetur": null, "CdInterven": "13001089500014", "NomInterve": "DREAL Aquitaine", "LbAffichag": "HydroPortail/Hydro 2", "DtMAJStati": "2016/09/28 16:08:03.000", "DroitPubli": "11", "InfluLocal": "2", "EssaiStati": 0.0, "CoordXStat": 398178.0, "CoordYStat": 6315750.0, "ProjCoordS": "26", "fid_2": 3, "cleabs": "DEPARTEM0000002150000501", "nom_officiel": "Landes", "code_insee": "40", "code_insee_de_la_region": "75", "code_siren": "224000018", "date_creation": "2018-11-24T00:00:00", "date_modification": "2025-03-05T17:46:07.604", "date_d_apparition": null, "date_de_confirmation": null, "liens_vers_autorite_administrative": "SURFACTI0000000018314237" }, "geometry": { "type": "MultiPoint", "coordinates": [ [ -0.756332413286499, 43.876134265871649 ] ] } },
{ "type": "Feature", "properties": { "fid": 3189, "gid": 3019.0, "CdStationH": "Q266311001", "CdStatio_1": "Q2663110", "LbStationH": "La Midouze à Tartas", "TypStation": "LIMNI", "CdCommune": "40313", "CdZoneHydr": "Q266", "CdEntiteHy": "Q2--0250", "CdTronconH": "Q2660250", "DtMiseServ": "1994/01/01 01:00:00.000", "DtFermetur": null, "CdInterven": "13001089500014", "NomInterve": "DREAL Aquitaine", "LbAffichag": "Vigicrues/HydroPortail/Hydro 2", "DtMAJStati": "2017/04/13 08:59:54.000", "DroitPubli": "11", "InfluLocal": "1", "EssaiStati": 0.0, "CoordXStat": 393838.0, "CoordYStat": 6311162.0, "ProjCoordS": "26", "fid_2": 3, "cleabs": "DEPARTEM0000002150000501", "nom_officiel": "Landes", "code_insee": "40", "code_insee_de_la_region": "75", "code_siren": "224000018", "date_creation": "2018-11-24T00:00:00", "date_modification": "2025-03-05T17:46:07.604", "date_d_apparition": null, "date_de_confirmation": null, "liens_vers_autorite_administrative": "SURFACTI0000000018314237" }, "geometry": { "type": "MultiPoint", "coordinates": [ [ -0.80751163834384, 43.833023706900612 ] ] } },
{ "type": "Feature", "properties": { "fid": 3190, "gid": 3020.0, "CdStationH": "Q303001001", "CdStatio_1": "Q3030010", "LbStationH": "L'Adour à Pontonx-sur-l'Adour", "TypStation": "LIMNI", "CdCommune": "40230", "CdZoneHydr": "Q300", "CdEntiteHy": "Q---0000", "CdTronconH": "Q3000000", "DtMiseServ": "1990/01/01 01:00:00.000", "DtFermetur": null, "CdInterven": "13001089500014", "NomInterve": "DREAL Aquitaine", "LbAffichag": "Vigicrues/HydroPortail/Hydro 2", "DtMAJStati": "2016/10/04 15:11:40.000", "DroitPubli": "11", "InfluLocal": "1", "EssaiStati": 0.0, "CoordXStat": 384078.0, "CoordYStat": 6306189.0, "ProjCoordS": "26", "fid_2": 3, "cleabs": "DEPARTEM0000002150000501", "nom_officiel": "Landes", "code_insee": "40", "code_insee_de_la_region": "75", "code_siren": "224000018", "date_creation": "2018-11-24T00:00:00", "date_modification": "2025-03-05T17:46:07.604", "date_d_apparition": null, "date_de_confirmation": null, "liens_vers_autorite_administrative": "SURFACTI0000000018314237" }, "geometry": { "type": "MultiPoint", "coordinates": [ [ -0.925620490384722, 43.784026920088593 ] ] } },
{ "type": "Feature", "properties": { "fid": 3191, "gid": 3021.0, "CdStationH": "Q305401001", "CdStatio_1": "Q3054010", "LbStationH": "Le Louts à Hagetmau", "TypStation": "LIMNI", "CdCommune": "40119", "CdZoneHydr": "Q304", "CdEntiteHy": "Q30-0400", "CdTronconH": "Q3040400", "DtMiseServ": "1984/12/27 13:10:00.000", "DtFermetur": null, "CdInterven": "13001089500014", "NomInterve": "DREAL Aquitaine", "LbAffichag": "HydroPortail/Hydro 2", "DtMAJStati": "2016/09/29 10:51:54.000", "DroitPubli": "11", "InfluLocal": "2", "EssaiStati": 0.0, "CoordXStat": 410211.00000000006, "CoordYStat": 6290017.0, "ProjCoordS": "26", "fid_2": 3, "cleabs": "DEPARTEM0000002150000501", "nom_officiel": "Landes", "code_insee": "40", "code_insee_de_la_region": "75", "code_siren": "224000018", "date_creation": "2018-11-24T00:00:00", "date_modification": "2025-03-05T17:46:07.604", "date_d_apparition": null, "date_de_confirmation": null, "liens_vers_autorite_administrative": "SURFACTI0000000018314237" }, "geometry": { "type": "MultiPoint", "coordinates": [ [ -0.592227635926516, 43.649860284468858 ] ] } },
{ "type": "Feature", "properties": { "fid": 3192, "gid": 3022.0, "CdStationH": "Q308040001", "CdStatio_1": null, "LbStationH": "Le Louts à Gamarde-les-Bains", "TypStation": "LIMNI", "CdCommune": "40104", "CdZoneHydr": "Q308", "CdEntiteHy": "Q30-0400", "CdTronconH": "Q3080400", "DtMiseServ": "2016/01/01 01:00:00.000", "DtFermetur": null, "CdInterven": "13001089500014", "NomInterve": "DREAL Aquitaine", "LbAffichag": "Vigicrues/HydroPortail", "DtMAJStati": "2016/12/15 10:51:34.000", "DroitPubli": "11", "InfluLocal": "2", "EssaiStati": 0.0, "CoordXStat": 390731.00000000006, "CoordYStat": 6300929.0, "ProjCoordS": "26", "fid_2": 3, "cleabs": "DEPARTEM0000002150000501", "nom_officiel": "Landes", "code_insee": "40", "code_insee_de_la_region": "75", "code_siren": "224000018", "date_creation": "2018-11-24T00:00:00", "date_modification": "2025-03-05T17:46:07.604", "date_d_apparition": null, "date_de_confirmation": null, "liens_vers_autorite_administrative": "SURFACTI0000000018314237" }, "geometry": { "type": "MultiPoint", "coordinates": [ [ -0.839906709495426, 43.739694098943957 ] ] } },
{ "type": "Feature", "properties": { "fid": 3193, "gid": 3023.0, "CdStationH": "Q312001001", "CdStatio_1": "Q3120020", "LbStationH": "L'Adour à Dax", "TypStation": "LIMNI", "CdCommune": "40088", "CdZoneHydr": "Q310", "CdEntiteHy": "Q---0000", "CdTronconH": "Q3100000", "DtMiseServ": null, "DtFermetur": "1956/01/01 01:00:00.000", "CdInterven": "13001089500014", "NomInterve": "DREAL Aquitaine", "LbAffichag": "HydroPortail/Hydro 2", "DtMAJStati": "2016/07/12 08:24:48.000", "DroitPubli": "10", "InfluLocal": "1", "EssaiStati": 0.0, "CoordXStat": 373347.00000000006, "CoordYStat": 6298781.0, "ProjCoordS": "26", "fid_2": 3, "cleabs": "DEPARTEM0000002150000501", "nom_officiel": "Landes", "code_insee": "40", "code_insee_de_la_region": "75", "code_siren": "224000018", "date_creation": "2018-11-24T00:00:00", "date_modification": "2025-03-05T17:46:07.604", "date_d_apparition": null, "date_de_confirmation": null, "liens_vers_autorite_administrative": "SURFACTI0000000018314237" }, "geometry": { "type": "MultiPoint", "coordinates": [ [ -1.054010534768796, 43.712573808983663 ] ] } },
{ "type": "Feature", "properties": { "fid": 3194, "gid": 3024.0, "CdStationH": "Q312001002", "CdStatio_1": "Q3120010", "LbStationH": "L'Adour à Saint-Vincent-de-Paul", "TypStation": "LIMNI", "CdCommune": "40283", "CdZoneHydr": "Q310", "CdEntiteHy": "Q---0000", "CdTronconH": "Q3100000", "DtMiseServ": "1949/01/01 01:00:00.000", "DtFermetur": null, "CdInterven": "13001089500014", "NomInterve": "DREAL Aquitaine", "LbAffichag": "HydroPortail/Hydro 2", "DtMAJStati": "2017/01/24 15:01:47.000", "DroitPubli": "10", "InfluLocal": "1", "EssaiStati": 0.0, "CoordXStat": 377862.0, "CoordYStat": 6300985.0, "ProjCoordS": "26", "fid_2": 3, "cleabs": "DEPARTEM0000002150000501", "nom_officiel": "Landes", "code_insee": "40", "code_insee_de_la_region": "75", "code_siren": "224000018", "date_creation": "2018-11-24T00:00:00", "date_modification": "2025-03-05T17:46:07.604", "date_d_apparition": null, "date_de_confirmation": null, "liens_vers_autorite_administrative": "SURFACTI0000000018314237" }, "geometry": { "type": "MultiPoint", "coordinates": [ [ -0.999456659198687, 43.734451399581431 ] ] } },
{ "type": "Feature", "properties": { "fid": 3195, "gid": 3025.0, "CdStationH": "Q312003001", "CdStatio_1": "Q3120030", "LbStationH": "L'Adour à Dax [Pont des arènes]", "TypStation": "LIMNI", "CdCommune": "40088", "CdZoneHydr": "Q312", "CdEntiteHy": "Q---0000", "CdTronconH": "Q3120000", "DtMiseServ": "1993/08/06 02:00:00.000", "DtFermetur": null, "CdInterven": "13001089500014", "NomInterve": "DREAL Aquitaine", "LbAffichag": "Vigicrues/HydroPortail/Hydro 2", "DtMAJStati": "2016/10/04 15:03:15.000", "DroitPubli": "11", "InfluLocal": "2", "EssaiStati": 0.0, "CoordXStat": 373355.00000000006, "CoordYStat": 6298739.0, "ProjCoordS": "26", "fid_2": 3, "cleabs": "DEPARTEM0000002150000501", "nom_officiel": "Landes", "code_insee": "40", "code_insee_de_la_region": "75", "code_siren": "224000018", "date_creation": "2018-11-24T00:00:00", "date_modification": "2025-03-05T17:46:07.604", "date_d_apparition": null, "date_de_confirmation": null, "liens_vers_autorite_administrative": "SURFACTI0000000018314237" }, "geometry": { "type": "MultiPoint", "coordinates": [ [ -1.053884685855401, 43.712200071765849 ] ] } },
{ "type": "Feature", "properties": { "fid": 3196, "gid": 3026.0, "CdStationH": "Q322401001", "CdStatio_1": "Q3224010", "LbStationH": "Le Luy à Monget", "TypStation": "LIMNI", "CdCommune": "40189", "CdZoneHydr": "Q324", "CdEntiteHy": "Q3--0250", "CdTronconH": "Q3240250", "DtMiseServ": "1969/08/27 11:30:00.000", "DtFermetur": null, "CdInterven": "13001089500014", "NomInterve": "DREAL Aquitaine", "LbAffichag": "HydroPortail/Hydro 2", "DtMAJStati": "2017/04/12 16:21:22.000", "DroitPubli": "11", "InfluLocal": "2", "EssaiStati": 0.0, "CoordXStat": 415738.0, "CoordYStat": 6281052.0, "ProjCoordS": "26", "fid_2": 3, "cleabs": "DEPARTEM0000002150000501", "nom_officiel": "Landes", "code_insee": "40", "code_insee_de_la_region": "75", "code_siren": "224000018", "date_creation": "2018-11-24T00:00:00", "date_modification": "2025-03-05T17:46:07.604", "date_d_apparition": null, "date_de_confirmation": null, "liens_vers_autorite_administrative": "SURFACTI0000000018314237" }, "geometry": { "type": "MultiPoint", "coordinates": [ [ -0.518857473133942, 43.571516137351892 ] ] } },
{ "type": "Feature", "properties": { "fid": 3198, "gid": 3028.0, "CdStationH": "Q340510501", "CdStatio_1": "Q3405105", "LbStationH": "[Les Eschourdes] à Donzacq", "TypStation": "LIMNI", "CdCommune": "40090", "CdZoneHydr": "Q340", "CdEntiteHy": "Q3401030", "CdTronconH": "Q3401030", "DtMiseServ": "1988/07/28 02:00:00.000", "DtFermetur": null, "CdInterven": "13001089500014", "NomInterve": "DREAL Aquitaine", "LbAffichag": "HydroPortail/Hydro 2", "DtMAJStati": "2016/07/12 08:24:52.000", "DroitPubli": "10", "InfluLocal": "3", "EssaiStati": 0.0, "CoordXStat": 394535.00000000006, "CoordYStat": 6291562.9999999991, "ProjCoordS": "26", "fid_2": 3, "cleabs": "DEPARTEM0000002150000501", "nom_officiel": "Landes", "code_insee": "40", "code_insee_de_la_region": "75", "code_siren": "224000018", "date_creation": "2018-11-24T00:00:00", "date_modification": "2025-03-05T17:46:07.604", "date_d_apparition": null, "date_de_confirmation": null, "liens_vers_autorite_administrative": "SURFACTI0000000018314237" }, "geometry": { "type": "MultiPoint", "coordinates": [ [ -0.787175782865536, 43.65716737741328 ] ] } },
{ "type": "Feature", "properties": { "fid": 3199, "gid": 3029.0, "CdStationH": "Q346401001", "CdStatio_1": "Q3464010", "LbStationH": "Le Luy à Saint-Pandelon", "TypStation": "LIMNI", "CdCommune": "40277", "CdZoneHydr": "Q346", "CdEntiteHy": "Q3--0250", "CdTronconH": "Q3460250", "DtMiseServ": "1967/01/01 01:00:00.000", "DtFermetur": null, "CdInterven": "13001089500014", "NomInterve": "DREAL Aquitaine", "LbAffichag": "Vigicrues/HydroPortail/Hydro 2", "DtMAJStati": "2016/10/04 15:18:39.000", "DroitPubli": "11", "InfluLocal": "1", "EssaiStati": 0.0, "CoordXStat": 374092.99999999994, "CoordYStat": 6294750.0, "ProjCoordS": "26", "fid_2": 3, "cleabs": "DEPARTEM0000002150000501", "nom_officiel": "Landes", "code_insee": "40", "code_insee_de_la_region": "75", "code_siren": "224000018", "date_creation": "2018-11-24T00:00:00", "date_modification": "2025-03-05T17:46:07.604", "date_d_apparition": null, "date_de_confirmation": null, "liens_vers_autorite_administrative": "SURFACTI0000000018314237" }, "geometry": { "type": "MultiPoint", "coordinates": [ [ -1.042209546604848, 43.676693650472153 ] ] } },
{ "type": "Feature", "properties": { "fid": 3243, "gid": 3073.0, "CdStationH": "Q745101001", "CdStatio_1": null, "LbStationH": "Le Gave de Pau [Les Gaves réunis] à Peyrehorade", "TypStation": "LIMNI", "CdCommune": "40224", "CdZoneHydr": "Q560", "CdEntiteHy": "Q---0100", "CdTronconH": "Q5600100", "DtMiseServ": "1990/11/12 01:00:00.000", "DtFermetur": null, "CdInterven": "13001089500014", "NomInterve": "DREAL Aquitaine", "LbAffichag": "Vigicrues/HydroPortail", "DtMAJStati": "2017/03/29 14:10:32.000", "DroitPubli": "11", "InfluLocal": "3", "EssaiStati": 0.0, "CoordXStat": 368208.0, "CoordYStat": 6280239.0, "ProjCoordS": "26", "fid_2": 3, "cleabs": "DEPARTEM0000002150000501", "nom_officiel": "Landes", "code_insee": "40", "code_insee_de_la_region": "75", "code_siren": "224000018", "date_creation": "2018-11-24T00:00:00", "date_modification": "2025-03-05T17:46:07.604", "date_d_apparition": null, "date_de_confirmation": null, "liens_vers_autorite_administrative": "SURFACTI0000000018314237" }, "geometry": { "type": "MultiPoint", "coordinates": [ [ -1.105720585290198, 43.543571019838318 ] ] } },
{ "type": "Feature", "properties": { "fid": 3246, "gid": 3076.0, "CdStationH": "Q836001001", "CdStatio_1": null, "LbStationH": "L'Adour à Saint-Laurent-de-Gosse [Urt]", "TypStation": "LIMNI", "CdCommune": "40268", "CdZoneHydr": "Q836", "CdEntiteHy": "Q---0000", "CdTronconH": "Q8360000", "DtMiseServ": "1995/06/13 02:00:00.000", "DtFermetur": null, "CdInterven": "13001089500014", "NomInterve": "DREAL Aquitaine", "LbAffichag": "Vigicrues/HydroPortail", "DtMAJStati": "2017/04/13 09:13:44.000", "DroitPubli": "10", "InfluLocal": "2", "EssaiStati": 0.0, "CoordXStat": 351948.99999999994, "CoordYStat": 6276676.0, "ProjCoordS": "26", "fid_2": 3, "cleabs": "DEPARTEM0000002150000501", "nom_officiel": "Landes", "code_insee": "40", "code_insee_de_la_region": "75", "code_siren": "224000018", "date_creation": "2018-11-24T00:00:00", "date_modification": "2025-03-05T17:46:07.604", "date_d_apparition": null, "date_de_confirmation": null, "liens_vers_autorite_administrative": "SURFACTI0000000018314237" }, "geometry": { "type": "MultiPoint", "coordinates": [ [ -1.304125520298208, 43.503773257489875 ] ] } },
{ "type": "Feature", "properties": { "fid": 3368, "gid": 3198.0, "CdStationH": "S204000101", "CdStatio_1": "S2041010", "LbStationH": "La Grande Leyre à Pissos", "TypStation": "LIMNI", "CdCommune": "40227", "CdZoneHydr": "S204", "CdEntiteHy": "S2--0250", "CdTronconH": "S2040250", "DtMiseServ": "2013/02/15 11:40:00.000", "DtFermetur": null, "CdInterven": "13001089500014", "NomInterve": "DREAL Aquitaine", "LbAffichag": "HydroPortail/Hydro 2", "DtMAJStati": "2016/10/17 14:02:53.000", "DroitPubli": "11", "InfluLocal": "1", "EssaiStati": 0.0, "CoordXStat": 400280.99999999994, "CoordYStat": 6363971.0, "ProjCoordS": "26", "fid_2": 3, "cleabs": "DEPARTEM0000002150000501", "nom_officiel": "Landes", "code_insee": "40", "code_insee_de_la_region": "75", "code_siren": "224000018", "date_creation": "2018-11-24T00:00:00", "date_modification": "2025-03-05T17:46:07.604", "date_d_apparition": null, "date_de_confirmation": null, "liens_vers_autorite_administrative": "SURFACTI0000000018314237" }, "geometry": { "type": "MultiPoint", "coordinates": [ [ -0.758744879808074, 44.310549558350807 ] ] } },
{ "type": "Feature", "properties": { "fid": 3369, "gid": 3199.0, "CdStationH": "S213401001", "CdStatio_1": "S2134010", "LbStationH": "La Petite Leyre à Belhade", "TypStation": "LIMNI", "CdCommune": "40032", "CdZoneHydr": "S213", "CdEntiteHy": "S21-0400", "CdTronconH": "S2130400", "DtMiseServ": "1995/01/10 13:00:00.000", "DtFermetur": null, "CdInterven": "13001089500014", "NomInterve": "DREAL Aquitaine", "LbAffichag": "HydroPortail/Hydro 2", "DtMAJStati": "2016/12/27 14:04:09.000", "DroitPubli": "11", "InfluLocal": "1", "EssaiStati": 0.0, "CoordXStat": 406332.99999999994, "CoordYStat": 6370813.0, "ProjCoordS": "26", "fid_2": 3, "cleabs": "DEPARTEM0000002150000501", "nom_officiel": "Landes", "code_insee": "40", "code_insee_de_la_region": "75", "code_siren": "224000018", "date_creation": "2018-11-24T00:00:00", "date_modification": "2025-03-05T17:46:07.604", "date_d_apparition": null, "date_de_confirmation": null, "liens_vers_autorite_administrative": "SURFACTI0000000018314237" }, "geometry": { "type": "MultiPoint", "coordinates": [ [ -0.686962196109867, 44.374637015482421 ] ] } },
{ "type": "Feature", "properties": { "fid": 3370, "gid": 3200.0, "CdStationH": "S222461001", "CdStatio_1": "S2224610", "LbStationH": "Le ruisseau de Castera à Moustey [Biganon]", "TypStation": "LIMNI", "CdCommune": "40200", "CdZoneHydr": "S222", "CdEntiteHy": "S22-0400", "CdTronconH": "S2220400", "DtMiseServ": "1967/12/05 16:20:00.000", "DtFermetur": null, "CdInterven": "13001089500014", "NomInterve": "DREAL Aquitaine", "LbAffichag": "HydroPortail/Hydro 2", "DtMAJStati": "2016/12/27 14:09:05.000", "DroitPubli": "11", "InfluLocal": "1", "EssaiStati": 0.0, "CoordXStat": 401330.0, "CoordYStat": 6375065.0, "ProjCoordS": "26", "fid_2": 3, "cleabs": "DEPARTEM0000002150000501", "nom_officiel": "Landes", "code_insee": "40", "code_insee_de_la_region": "75", "code_siren": "224000018", "date_creation": "2018-11-24T00:00:00", "date_modification": "2025-03-05T17:46:07.604", "date_d_apparition": null, "date_de_confirmation": null, "liens_vers_autorite_administrative": "SURFACTI0000000018314237" }, "geometry": { "type": "MultiPoint", "coordinates": [ [ -0.752215561738467, 44.410749260214764 ] ] } },
{ "type": "Feature", "properties": { "fid": 3371, "gid": 3201.0, "CdStationH": "S223501001", "CdStatio_1": "S2235010", "LbStationH": "Le ruisseau de Lilaire à Belin-Béliet [Muret]", "TypStation": "LIMNI", "CdCommune": "33042", "CdZoneHydr": "S223", "CdEntiteHy": "S2230500", "CdTronconH": "S2230500", "DtMiseServ": "1973/12/13 13:00:00.000", "DtFermetur": "1980/11/07 13:00:00.000", "CdInterven": "13001089500014", "NomInterve": "DREAL Aquitaine", "LbAffichag": "HydroPortail/Hydro 2", "DtMAJStati": "2016/07/12 08:24:51.000", "DroitPubli": "10", "InfluLocal": "1", "EssaiStati": 0.0, "CoordXStat": 395888.0, "CoordYStat": 6376380.0, "ProjCoordS": "26", "fid_2": 3, "cleabs": "DEPARTEM0000002150000501", "nom_officiel": "Landes", "code_insee": "40", "code_insee_de_la_region": "75", "code_siren": "224000018", "date_creation": "2018-11-24T00:00:00", "date_modification": "2025-03-05T17:46:07.604", "date_d_apparition": null, "date_de_confirmation": null, "liens_vers_autorite_administrative": "SURFACTI0000000018314237" }, "geometry": { "type": "MultiPoint", "coordinates": [ [ -0.82127699302189, 44.420224671128665 ] ] } },
{ "type": "Feature", "properties": { "fid": 3376, "gid": 3206.0, "CdStationH": "S312431001", "CdStatio_1": "S3124310", "LbStationH": "Le ruisseau de la Calle à Parentis-en-Born", "TypStation": "LIMNI", "CdCommune": "40217", "CdZoneHydr": "S312", "CdEntiteHy": "S3120550", "CdTronconH": "S3120550", "DtMiseServ": "1991/09/05 14:00:00.000", "DtFermetur": null, "CdInterven": "13001089500014", "NomInterve": "DREAL Aquitaine", "LbAffichag": "HydroPortail/Hydro 2", "DtMAJStati": "2016/12/27 14:35:19.000", "DroitPubli": "11", "InfluLocal": "1", "EssaiStati": 0.0, "CoordXStat": 377152.0, "CoordYStat": 6368093.0, "ProjCoordS": "26", "fid_2": 3, "cleabs": "DEPARTEM0000002150000501", "nom_officiel": "Landes", "code_insee": "40", "code_insee_de_la_region": "75", "code_siren": "224000018", "date_creation": "2018-11-24T00:00:00", "date_modification": "2025-03-05T17:46:07.604", "date_d_apparition": null, "date_de_confirmation": null, "liens_vers_autorite_administrative": "SURFACTI0000000018314237" }, "geometry": { "type": "MultiPoint", "coordinates": [ [ -1.05096276676976, 44.337316746539237 ] ] } },
{ "type": "Feature", "properties": { "fid": 3377, "gid": 3207.0, "CdStationH": "S314501001", "CdStatio_1": "S3145010", "LbStationH": "Le canal des Landes à Biscarrosse [Navarosse]", "TypStation": "LIMNI", "CdCommune": "40046", "CdZoneHydr": "S310", "CdEntiteHy": "S3--0252", "CdTronconH": "S3100252", "DtMiseServ": "1991/09/05 14:00:00.000", "DtFermetur": "1996/07/09 12:00:00.000", "CdInterven": "13001089500014", "NomInterve": "DREAL Aquitaine", "LbAffichag": "HydroPortail/Hydro 2", "DtMAJStati": "2016/07/12 08:24:46.000", "DroitPubli": "10", "InfluLocal": "1", "EssaiStati": 0.0, "CoordXStat": 367784.99999999994, "CoordYStat": 6378607.0, "ProjCoordS": "26", "fid_2": 3, "cleabs": "DEPARTEM0000002150000501", "nom_officiel": "Landes", "code_insee": "40", "code_insee_de_la_region": "75", "code_siren": "224000018", "date_creation": "2018-11-24T00:00:00", "date_modification": "2025-03-05T17:46:07.604", "date_d_apparition": null, "date_de_confirmation": null, "liens_vers_autorite_administrative": "SURFACTI0000000018314237" }, "geometry": { "type": "MultiPoint", "coordinates": [ [ -1.17524972735193, 44.427442006476163 ] ] } },
{ "type": "Feature", "properties": { "fid": 3378, "gid": 3208.0, "CdStationH": "S321401001", "CdStatio_1": "S3214010", "LbStationH": "Le ruisseau de Canteloup à Saint-Paul-en-Born", "TypStation": "LIMNI", "CdCommune": "40278", "CdZoneHydr": "S324", "CdEntiteHy": "S32-0430", "CdTronconH": "S3240430", "DtMiseServ": "1991/09/05 14:00:00.000", "DtFermetur": null, "CdInterven": "13001089500014", "NomInterve": "DREAL Aquitaine", "LbAffichag": "HydroPortail/Hydro 2", "DtMAJStati": "2016/12/27 14:39:38.000", "DroitPubli": "11", "InfluLocal": "1", "EssaiStati": 0.0, "CoordXStat": 368542.0, "CoordYStat": 6357016.0, "ProjCoordS": "26", "fid_2": 3, "cleabs": "DEPARTEM0000002150000501", "nom_officiel": "Landes", "code_insee": "40", "code_insee_de_la_region": "75", "code_siren": "224000018", "date_creation": "2018-11-24T00:00:00", "date_modification": "2025-03-05T17:46:07.604", "date_d_apparition": null, "date_de_confirmation": null, "liens_vers_autorite_administrative": "SURFACTI0000000018314237" }, "geometry": { "type": "MultiPoint", "coordinates": [ [ -1.151500009932438, 44.2337205840251 ] ] } },
{ "type": "Feature", "properties": { "fid": 3379, "gid": 3209.0, "CdStationH": "S322501001", "CdStatio_1": "S3225010", "LbStationH": "Le ruisseau de Canteloup à Sainte-Eulalie-en-Born [Serbiat]", "TypStation": "LIMNI", "CdCommune": "40257", "CdZoneHydr": "S324", "CdEntiteHy": "S32-0430", "CdTronconH": "S3240430", "DtMiseServ": "1991/09/05 14:00:00.000", "DtFermetur": "1997/01/17 11:00:00.000", "CdInterven": "13001089500014", "NomInterve": "DREAL Aquitaine", "LbAffichag": "HydroPortail/Hydro 2", "DtMAJStati": "2016/07/12 08:24:53.000", "DroitPubli": "10", "InfluLocal": "3", "EssaiStati": 0.0, "CoordXStat": 368542.0, "CoordYStat": 6357016.0, "ProjCoordS": "26", "fid_2": 3, "cleabs": "DEPARTEM0000002150000501", "nom_officiel": "Landes", "code_insee": "40", "code_insee_de_la_region": "75", "code_siren": "224000018", "date_creation": "2018-11-24T00:00:00", "date_modification": "2025-03-05T17:46:07.604", "date_d_apparition": null, "date_de_confirmation": null, "liens_vers_autorite_administrative": "SURFACTI0000000018314237" }, "geometry": { "type": "MultiPoint", "coordinates": [ [ -1.151500009932438, 44.2337205840251 ] ] } },
{ "type": "Feature", "properties": { "fid": 3380, "gid": 3210.0, "CdStationH": "S411401001", "CdStatio_1": "S4114010", "LbStationH": "Le ruisseau de la Palue à Castets", "TypStation": "LIMNI", "CdCommune": "40075", "CdZoneHydr": "S411", "CdEntiteHy": "S41-0400", "CdTronconH": "S4110400", "DtMiseServ": "1973/07/19 12:30:00.000", "DtFermetur": "1980/10/31 11:00:00.000", "CdInterven": "13001089500014", "NomInterve": "DREAL Aquitaine", "LbAffichag": "HydroPortail/Hydro 2", "DtMAJStati": "2016/07/12 08:24:57.000", "DroitPubli": "10", "InfluLocal": "3", "EssaiStati": 0.0, "CoordXStat": 364091.00000000006, "CoordYStat": 6318529.0, "ProjCoordS": "26", "fid_2": 3, "cleabs": "DEPARTEM0000002150000501", "nom_officiel": "Landes", "code_insee": "40", "code_insee_de_la_region": "75", "code_siren": "224000018", "date_creation": "2018-11-24T00:00:00", "date_modification": "2025-03-05T17:46:07.604", "date_d_apparition": null, "date_de_confirmation": null, "liens_vers_autorite_administrative": "SURFACTI0000000018314237" }, "geometry": { "type": "MultiPoint", "coordinates": [ [ -1.181640529895219, 43.885699228402466 ] ] } },
{ "type": "Feature", "properties": { "fid": 3381, "gid": 3211.0, "CdStationH": "S421401001", "CdStatio_1": "S4214010", "LbStationH": "Le courant de Soustons à Magescq", "TypStation": "LIMNI", "CdCommune": "40168", "CdZoneHydr": "S421", "CdEntiteHy": "S42-0400", "CdTronconH": "S4210400", "DtMiseServ": "1969/08/11 15:00:00.000", "DtFermetur": null, "CdInterven": "13001089500014", "NomInterve": "DREAL Aquitaine", "LbAffichag": "HydroPortail/Hydro 2", "DtMAJStati": "2016/10/04 15:20:29.000", "DroitPubli": "11", "InfluLocal": "1", "EssaiStati": 0.0, "CoordXStat": 359976.0, "CoordYStat": 6307120.0000000009, "ProjCoordS": "26", "fid_2": 3, "cleabs": "DEPARTEM0000002150000501", "nom_officiel": "Landes", "code_insee": "40", "code_insee_de_la_region": "75", "code_siren": "224000018", "date_creation": "2018-11-24T00:00:00", "date_modification": "2025-03-05T17:46:07.604", "date_d_apparition": null, "date_de_confirmation": null, "liens_vers_autorite_administrative": "SURFACTI0000000018314237" }, "geometry": { "type": "MultiPoint", "coordinates": [ [ -1.225177301694236, 43.781204587846354 ] ] } },
{ "type": "Feature", "properties": { "fid": 3382, "gid": 3212.0, "CdStationH": "S423541001", "CdStatio_1": "S4235410", "LbStationH": "Le ruisseau de Bibic à Soustons", "TypStation": "LIMNI", "CdCommune": "40310", "CdZoneHydr": "S426", "CdEntiteHy": "S4260500", "CdTronconH": "S4260500", "DtMiseServ": "1969/08/29 10:30:00.000", "DtFermetur": "1976/07/20 14:00:00.000", "CdInterven": "13001089500014", "NomInterve": "DREAL Aquitaine", "LbAffichag": "HydroPortail/Hydro 2", "DtMAJStati": "2016/07/12 08:25:07.000", "DroitPubli": "10", "InfluLocal": "1", "EssaiStati": 0.0, "CoordXStat": 350208.0, "CoordYStat": 6303961.0, "ProjCoordS": "26", "fid_2": 3, "cleabs": "DEPARTEM0000002150000501", "nom_officiel": "Landes", "code_insee": "40", "code_insee_de_la_region": "75", "code_siren": "224000018", "date_creation": "2018-11-24T00:00:00", "date_modification": "2025-03-05T17:46:07.604", "date_d_apparition": null, "date_de_confirmation": null, "liens_vers_autorite_administrative": "SURFACTI0000000018314237" }, "geometry": { "type": "MultiPoint", "coordinates": [ [ -1.344156707147035, 43.74805255053252 ] ] } }
]
}
