{
"type": "FeatureCollection",
"name": "DDT40_retenue_d_eau",
"crs": { "type": "name", "properties": { "name": "urn:ogc:def:crs:OGC:1.3:CRS84" } },
"xy_coordinate_resolution": 1e-15,
"features": [
{ "type": "Feature", "properties": { "fid": 1, "ID_OUVRAGE": 40901342, "NOM_OUVRAG": "GIOULE", "TYPE_OUVRA": null, "SP_OUVRAGE": null, "CLASSE": "B" }, "geometry": { "type": "MultiLineString", "coordinates": [ [ [ -0.266920109843443, 43.764428298720844 ], [ -0.26855396315417, 43.768194336038846 ] ] ] } },
{ "type": "Feature", "properties": { "fid": 2, "ID_OUVRAGE": 40901333, "NOM_OUVRAG": "DUHORT BACHEN", "TYPE_OUVRA": null, "SP_OUVRAGE": null, "CLASSE": "B" }, "geometry": { "type": "MultiLineString", "coordinates": [ [ [ -0.30982457745656, 43.705934360468007 ], [ -0.305866484377903, 43.70660742657644 ] ] ] } },
{ "type": "Feature", "properties": { "fid": 3, "ID_OUVRAGE": 40900604, "NOM_OUVRAG": "LATRILLE", "TYPE_OUVRA": null, "SP_OUVRAGE": null, "CLASSE": "B" }, "geometry": { "type": "MultiLineString", "coordinates": [ [ [ -0.284879680312946, 43.640738651265963 ], [ -0.280167659600546, 43.641753865739879 ] ] ] } },
{ "type": "Feature", "properties": { "fid": 4, "ID_OUVRAGE": 40902269, "NOM_OUVRAG": "JOUANDET", "TYPE_OUVRA": null, "SP_OUVRAGE": null, "CLASSE": "C" }, "geometry": { "type": "MultiLineString", "coordinates": [ [ [ 0.04673346829227, 43.975788610559427 ], [ 0.046931241574075, 43.97440346166276 ] ] ] } },
{ "type": "Feature", "properties": { "fid": 5, "ID_OUVRAGE": 40901893, "NOM_OUVRAG": "ARMANON", "TYPE_OUVRA": null, "SP_OUVRAGE": null, "CLASSE": "C" }, "geometry": { "type": "MultiLineString", "coordinates": [ [ [ 0.032473505536833, 43.931030596689475 ], [ 0.033886588346569, 43.929129544429173 ] ] ] } },
{ "type": "Feature", "properties": { "fid": 6, "ID_OUVRAGE": 40900020, "NOM_OUVRAG": "BROUSSEAU AVAL", "TYPE_OUVRA": null, "SP_OUVRAGE": null, "CLASSE": "B" }, "geometry": { "type": "MultiLineString", "coordinates": [ [ [ -0.289898316811459, 43.681568070938383 ], [ -0.284997633022703, 43.683271083579292 ] ] ] } },
{ "type": "Feature", "properties": { "fid": 7, "ID_OUVRAGE": 40903078, "NOM_OUVRAG": "FARGUES", "TYPE_OUVRA": null, "SP_OUVRAGE": null, "CLASSE": "B" }, "geometry": { "type": "MultiLineString", "coordinates": [ [ [ -0.478099606806689, 43.737524812670415 ], [ -0.476436295346645, 43.735663259233249 ] ] ] } },
{ "type": "Feature", "properties": { "fid": 8, "ID_OUVRAGE": 40900592, "NOM_OUVRAG": "MIRAMONT", "TYPE_OUVRA": null, "SP_OUVRAGE": null, "CLASSE": "B" }, "geometry": { "type": "MultiLineString", "coordinates": [ [ [ -0.303292925609264, 43.586800159909792 ], [ -0.29980105256628, 43.588078069938966 ] ] ] } },
{ "type": "Feature", "properties": { "fid": 9, "ID_OUVRAGE": 40900013, "NOM_OUVRAG": "HAGETMAU MONSEGUR", "TYPE_OUVRA": null, "SP_OUVRAGE": null, "CLASSE": "B" }, "geometry": { "type": "MultiLineString", "coordinates": [ [ [ -0.577394476230174, 43.636393393069767 ], [ -0.574539038193686, 43.639803376963009 ] ] ] } },
{ "type": "Feature", "properties": { "fid": 10, "ID_OUVRAGE": 40901231, "NOM_OUVRAG": "RENUNG", "TYPE_OUVRA": null, "SP_OUVRAGE": null, "CLASSE": "B" }, "geometry": { "type": "MultiLineString", "coordinates": [ [ [ -0.372651978795717, 43.743546487116866 ], [ -0.369428470069475, 43.744629027479434 ] ] ] } },
{ "type": "Feature", "properties": { "fid": 11, "ID_OUVRAGE": 40901818, "NOM_OUVRAG": "ARTHEZ", "TYPE_OUVRA": null, "SP_OUVRAGE": null, "CLASSE": "C" }, "geometry": { "type": "MultiLineString", "coordinates": [ [ [ -0.260066722777162, 43.888409160472946 ], [ -0.2599648063997, 43.890132289891163 ] ] ] } },
{ "type": "Feature", "properties": { "fid": 12, "ID_OUVRAGE": 40901226, "NOM_OUVRAG": "COUDURES", "TYPE_OUVRA": null, "SP_OUVRAGE": null, "CLASSE": "B" }, "geometry": { "type": "MultiLineString", "coordinates": [ [ [ -0.50104639702725, 43.68816855971918 ], [ -0.497425846613195, 43.689614020195272 ] ] ] } },
{ "type": "Feature", "properties": { "fid": 13, "ID_OUVRAGE": 40900554, "NOM_OUVRAG": "LESCHAOUBIES", "TYPE_OUVRA": null, "SP_OUVRAGE": null, "CLASSE": "C" }, "geometry": { "type": "MultiLineString", "coordinates": [ [ [ -0.45383767825359, 43.653524959608042 ], [ -0.450938184690776, 43.654068126958528 ] ] ] } },
{ "type": "Feature", "properties": { "fid": 14, "ID_OUVRAGE": 40901729, "NOM_OUVRAG": "TAILLURET", "TYPE_OUVRA": null, "SP_OUVRAGE": null, "CLASSE": "C" }, "geometry": { "type": "MultiLineString", "coordinates": [ [ [ -0.154173082413429, 43.945166160043108 ], [ -0.152406472551946, 43.942709543347796 ] ] ] } },
{ "type": "Feature", "properties": { "fid": 15, "ID_OUVRAGE": 40901863, "NOM_OUVRAG": "CHARROS", "TYPE_OUVRA": null, "SP_OUVRAGE": null, "CLASSE": "C" }, "geometry": { "type": "MultiLineString", "coordinates": [ [ [ -0.202410244937158, 43.858312052625664 ], [ -0.2003865421617, 43.857716827191886 ] ] ] } },
{ "type": "Feature", "properties": { "fid": 16, "ID_OUVRAGE": 40900513, "NOM_OUVRAG": "BORDENAVE", "TYPE_OUVRA": null, "SP_OUVRAGE": null, "CLASSE": "C" }, "geometry": { "type": "MultiLineString", "coordinates": [ [ [ -0.799467117199765, 43.612459848860205 ], [ -0.797176487678256, 43.612419083646252 ] ] ] } },
{ "type": "Feature", "properties": { "fid": 17, "ID_OUVRAGE": 40901207, "NOM_OUVRAG": "BASSIBE", "TYPE_OUVRA": null, "SP_OUVRAGE": null, "CLASSE": "C" }, "geometry": { "type": "MultiLineString", "coordinates": [ [ [ -0.455393727544427, 43.686516956779258 ], [ -0.456672546756361, 43.687926809007614 ] ] ] } },
{ "type": "Feature", "properties": { "fid": 18, "ID_OUVRAGE": 40900003, "NOM_OUVRAG": "BEDOREDE", "TYPE_OUVRA": null, "SP_OUVRAGE": null, "CLASSE": "C" }, "geometry": { "type": "MultiLineString", "coordinates": [ [ [ -1.272283434419192, 43.546838672441112 ], [ -1.269394893469175, 43.546005070858214 ] ] ] } },
{ "type": "Feature", "properties": { "fid": 19, "ID_OUVRAGE": 40900614, "NOM_OUVRAG": "BEGORRE TROUSSIN", "TYPE_OUVRA": null, "SP_OUVRAGE": null, "CLASSE": "C" }, "geometry": { "type": "MultiLineString", "coordinates": [ [ [ -0.291059811738318, 43.667832338404708 ], [ -0.289677024540321, 43.667189309055424 ] ] ] } },
{ "type": "Feature", "properties": { "fid": 20, "ID_OUVRAGE": 40901293, "NOM_OUVRAG": "BENQUET", "TYPE_OUVRA": null, "SP_OUVRAGE": null, "CLASSE": "C" }, "geometry": { "type": "MultiLineString", "coordinates": [ [ [ -0.534164658486705, 43.801150827497921 ], [ -0.53413527329712, 43.804274436937931 ] ] ] } },
{ "type": "Feature", "properties": { "fid": 21, "ID_OUVRAGE": 40902244, "NOM_OUVRAG": "CANET", "TYPE_OUVRA": null, "SP_OUVRAGE": null, "CLASSE": "C" }, "geometry": { "type": "MultiLineString", "coordinates": [ [ [ 0.067698116538494, 43.989354226120078 ], [ 0.068623728694824, 43.988170711651939 ] ] ] } },
{ "type": "Feature", "properties": { "fid": 22, "ID_OUVRAGE": 40900524, "NOM_OUVRAG": "MOUNET", "TYPE_OUVRA": null, "SP_OUVRAGE": null, "CLASSE": "C" }, "geometry": { "type": "MultiLineString", "coordinates": [ [ [ -0.650596480157091, 43.624123807157211 ], [ -0.649175067819276, 43.623144022902054 ] ] ] } },
{ "type": "Feature", "properties": { "fid": 23, "ID_OUVRAGE": 40902255, "NOM_OUVRAG": "LATOUR", "TYPE_OUVRA": null, "SP_OUVRAGE": null, "CLASSE": "C" }, "geometry": { "type": "MultiLineString", "coordinates": [ [ [ -0.101480695818651, 43.974434848750647 ], [ -0.098457380531557, 43.973714976582471 ] ] ] } },
{ "type": "Feature", "properties": { "fid": 24, "ID_OUVRAGE": 40901292, "NOM_OUVRAG": "PEYROT", "TYPE_OUVRA": null, "SP_OUVRAGE": null, "CLASSE": "C" }, "geometry": { "type": "MultiLineString", "coordinates": [ [ [ -0.395558690459834, 43.798541135513815 ], [ -0.394300206292937, 43.796082428109422 ] ] ] } },
{ "type": "Feature", "properties": { "fid": 25, "ID_OUVRAGE": 40900560, "NOM_OUVRAG": "JOULIE", "TYPE_OUVRA": null, "SP_OUVRAGE": null, "CLASSE": "C" }, "geometry": { "type": "MultiLineString", "coordinates": [ [ [ -0.350643584130765, 43.650313204630649 ], [ -0.349528663009305, 43.651173501443076 ] ] ] } },
{ "type": "Feature", "properties": { "fid": 26, "ID_OUVRAGE": 40901237, "NOM_OUVRAG": "SAINT LOUBOUER 2", "TYPE_OUVRA": null, "SP_OUVRAGE": null, "CLASSE": "C" }, "geometry": { "type": "MultiLineString", "coordinates": [ [ [ -0.384714157727459, 43.673211025397201 ], [ -0.38354312210362, 43.673589944888455 ] ] ] } },
{ "type": "Feature", "properties": { "fid": 27, "ID_OUVRAGE": 40900019, "NOM_OUVRAG": "SAINT LOUBOUER 3", "TYPE_OUVRA": null, "SP_OUVRAGE": null, "CLASSE": "C" }, "geometry": { "type": "MultiLineString", "coordinates": [ [ [ -0.401564356198418, 43.668274180048918 ], [ -0.400030093563771, 43.668140862031485 ] ] ] } },
{ "type": "Feature", "properties": { "fid": 28, "ID_OUVRAGE": 40901246, "NOM_OUVRAG": "SAINT LOUBOUER 4", "TYPE_OUVRA": null, "SP_OUVRAGE": null, "CLASSE": "C" }, "geometry": { "type": "MultiLineString", "coordinates": [ [ [ -0.428829361650826, 43.674903229051765 ], [ -0.428052420084555, 43.675834277279826 ] ] ] } },
{ "type": "Feature", "properties": { "fid": 29, "ID_OUVRAGE": 40901147, "NOM_OUVRAG": "TUILERIE", "TYPE_OUVRA": null, "SP_OUVRAGE": null, "CLASSE": "C" }, "geometry": { "type": "MultiLineString", "coordinates": [ [ [ -0.709352533842426, 43.682891747100861 ], [ -0.708278067772261, 43.682162767039621 ] ] ] } },
{ "type": "Feature", "properties": { "fid": 30, "ID_OUVRAGE": 40901212, "NOM_OUVRAG": "LABOUYRIE", "TYPE_OUVRA": null, "SP_OUVRAGE": null, "CLASSE": "C" }, "geometry": { "type": "MultiLineString", "coordinates": [ [ [ -0.546834622505774, 43.726033797063479 ], [ -0.547072319800018, 43.726731172313926 ] ] ] } },
{ "type": "Feature", "properties": { "fid": 31, "ID_OUVRAGE": 40901378, "NOM_OUVRAG": "SAINT MICHEL", "TYPE_OUVRA": null, "SP_OUVRAGE": null, "CLASSE": "C" }, "geometry": { "type": "MultiLineString", "coordinates": [ [ [ -0.25212553807603, 43.808865975971337 ], [ -0.250762962006656, 43.808382900149539 ] ] ] } },
{ "type": "Feature", "properties": { "fid": 32, "ID_OUVRAGE": 40900585, "NOM_OUVRAG": "BIGNAOU", "TYPE_OUVRA": null, "SP_OUVRAGE": null, "CLASSE": "C" }, "geometry": { "type": "MultiLineString", "coordinates": [ [ [ -0.364625273202486, 43.612027780994843 ], [ -0.36404264516302, 43.611613971591112 ], [ -0.364063832604394, 43.610971571291273 ], [ -0.364798483677344, 43.610521041930546 ] ] ] } },
{ "type": "Feature", "properties": { "fid": 33, "ID_OUVRAGE": 40901235, "NOM_OUVRAG": "JUZANX", "TYPE_OUVRA": null, "SP_OUVRAGE": null, "CLASSE": "C" }, "geometry": { "type": "MultiLineString", "coordinates": [ [ [ -0.488490571693605, 43.717980710262069 ], [ -0.488491367637198, 43.717993768879467 ], [ -0.489631730017822, 43.718938831485083 ], [ -0.489646561238431, 43.718886019172885 ] ] ] } },
{ "type": "Feature", "properties": { "fid": 34, "ID_OUVRAGE": 40901602, "NOM_OUVRAG": "MOUGA", "TYPE_OUVRA": null, "SP_OUVRAGE": null, "CLASSE": "C" }, "geometry": { "type": "MultiLineString", "coordinates": [ [ [ -0.364567659508629, 43.927844132802313 ], [ -0.363557115732185, 43.926985188958888 ], [ -0.363556345465722, 43.926972127740711 ] ] ] } },
{ "type": "Feature", "properties": { "fid": 35, "ID_OUVRAGE": 40901716, "NOM_OUVRAG": "MARTIQUES", "TYPE_OUVRA": null, "SP_OUVRAGE": null, "CLASSE": "C" }, "geometry": { "type": "MultiLineString", "coordinates": [ [ [ -0.221892278665417, 43.940615265289836 ], [ -0.220470691909734, 43.940460870879193 ], [ -0.220470691909734, 43.940460870879193 ] ] ] } },
{ "type": "Feature", "properties": { "fid": 36, "ID_OUVRAGE": 40901718, "NOM_OUVRAG": "BIDALEC", "TYPE_OUVRA": null, "SP_OUVRAGE": null, "CLASSE": "C" }, "geometry": { "type": "MultiLineString", "coordinates": [ [ [ -0.273236234095026, 43.946457553927885 ], [ -0.272775359131167, 43.945371887517403 ], [ -0.272775359131167, 43.945371887517403 ] ] ] } },
{ "type": "Feature", "properties": { "fid": 37, "ID_OUVRAGE": 40901722, "NOM_OUVRAG": "COUPAT", "TYPE_OUVRA": null, "SP_OUVRAGE": null, "CLASSE": "C" }, "geometry": { "type": "MultiLineString", "coordinates": [ [ [ -0.239377637589733, 43.946773231981851 ], [ -0.239395728089286, 43.946772695476184 ], [ -0.240380282543854, 43.946246130210689 ], [ -0.240380282543854, 43.946246130210689 ] ] ] } },
{ "type": "Feature", "properties": { "fid": 38, "ID_OUVRAGE": 40902176, "NOM_OUVRAG": "BOUILLON", "TYPE_OUVRA": null, "SP_OUVRAGE": null, "CLASSE": "C" }, "geometry": { "type": "MultiLineString", "coordinates": [ [ [ -0.163549281384136, 43.975878867567111 ], [ -0.162631420431123, 43.975342642977921 ], [ -0.162631420431123, 43.975342642977921 ] ] ] } },
{ "type": "Feature", "properties": { "fid": 39, "ID_OUVRAGE": 40903086, "NOM_OUVRAG": "JEANDEDIEU", "TYPE_OUVRA": null, "SP_OUVRAGE": null, "CLASSE": "C" }, "geometry": { "type": "MultiLineString", "coordinates": [ [ [ -0.667639240678516, 43.67853973614158 ], [ -0.666082016632822, 43.677597446475502 ], [ -0.666099991206495, 43.677596840350184 ] ] ] } },
{ "type": "Feature", "properties": { "fid": 40, "ID_OUVRAGE": 40900335, "NOM_OUVRAG": "HAULON", "TYPE_OUVRA": null, "SP_OUVRAGE": null, "CLASSE": "C" }, "geometry": { "type": "MultiLineString", "coordinates": [ [ [ -1.117781381656851, 43.579353577811318 ], [ -1.116621468944223, 43.579517527623764 ] ] ] } },
{ "type": "Feature", "properties": { "fid": 41, "ID_OUVRAGE": 40900482, "NOM_OUVRAG": "TAULADE", "TYPE_OUVRA": null, "SP_OUVRAGE": null, "CLASSE": "C" }, "geometry": { "type": "MultiLineString", "coordinates": [ [ [ -0.68115837526364, 43.630854907126924 ], [ -0.679162567416642, 43.630834564210375 ], [ -0.679176791135694, 43.630834082477421 ] ] ] } },
{ "type": "Feature", "properties": { "fid": 42, "ID_OUVRAGE": 40900573, "NOM_OUVRAG": "MAOUHUM", "TYPE_OUVRA": null, "SP_OUVRAGE": null, "CLASSE": "C" }, "geometry": { "type": "MultiLineString", "coordinates": [ [ [ -0.429271197136568, 43.663200996865164 ], [ -0.42946001181354, 43.664213784225907 ], [ -0.42946001181354, 43.664213784225907 ] ] ] } },
{ "type": "Feature", "properties": { "fid": 43, "ID_OUVRAGE": 40900603, "NOM_OUVRAG": "HARGOUET", "TYPE_OUVRA": null, "SP_OUVRAGE": null, "CLASSE": "C" }, "geometry": { "type": "MultiLineString", "coordinates": [ [ [ -0.278494948998316, 43.642759027741064 ], [ -0.277877462890778, 43.643449659520329 ] ] ] } },
{ "type": "Feature", "properties": { "fid": 44, "ID_OUVRAGE": 40900608, "NOM_OUVRAG": "LAGRAVE", "TYPE_OUVRA": null, "SP_OUVRAGE": null, "CLASSE": "C" }, "geometry": { "type": "MultiLineString", "coordinates": [ [ [ -0.286803034804379, 43.619219688603877 ], [ -0.283461440484778, 43.619135450920744 ], [ -0.283461440484778, 43.619135450920744 ] ] ] } },
{ "type": "Feature", "properties": { "fid": 45, "ID_OUVRAGE": 40900609, "NOM_OUVRAG": "GRAPILLE", "TYPE_OUVRA": null, "SP_OUVRAGE": null, "CLASSE": "C" }, "geometry": { "type": "MultiLineString", "coordinates": [ [ [ -0.24749273923214, 43.659814175305165 ], [ -0.247614101543349, 43.660762174846298 ], [ -0.247614101543349, 43.660762174846298 ] ] ] } },
{ "type": "Feature", "properties": { "fid": 46, "ID_OUVRAGE": 40901009, "NOM_OUVRAG": "DEZEST", "TYPE_OUVRA": null, "SP_OUVRAGE": null, "CLASSE": "C" }, "geometry": { "type": "MultiLineString", "coordinates": [ [ [ -0.659179562671234, 43.677339827987815 ], [ -0.658383791586249, 43.676314899929864 ], [ -0.658383791586249, 43.676314899929864 ] ] ] } },
{ "type": "Feature", "properties": { "fid": 47, "ID_OUVRAGE": 40901265, "NOM_OUVRAG": "PINTRE", "TYPE_OUVRA": null, "SP_OUVRAGE": null, "CLASSE": "C" }, "geometry": { "type": "MultiLineString", "coordinates": [ [ [ -0.42443616043838, 43.684130915132982 ], [ -0.422985391874939, 43.684443184533698 ], [ -0.422985391874939, 43.684443184533698 ] ] ] } },
{ "type": "Feature", "properties": { "fid": 48, "ID_OUVRAGE": 40901266, "NOM_OUVRAG": "BUYSSOU", "TYPE_OUVRA": null, "SP_OUVRAGE": null, "CLASSE": "C" }, "geometry": { "type": "MultiLineString", "coordinates": [ [ [ -0.399841972729752, 43.696620328539097 ], [ -0.399067642862084, 43.697341563644507 ], [ -0.399067405873638, 43.697337571696707 ] ] ] } },
{ "type": "Feature", "properties": { "fid": 49, "ID_OUVRAGE": 40901285, "NOM_OUVRAG": "REY", "TYPE_OUVRA": null, "SP_OUVRAGE": null, "CLASSE": "C" }, "geometry": { "type": "MultiLineString", "coordinates": [ [ [ -0.531166243146243, 43.70551849646391 ], [ -0.530865467820295, 43.704874384843897 ], [ -0.530865467820295, 43.704874384843897 ] ] ] } },
{ "type": "Feature", "properties": { "fid": 50, "ID_OUVRAGE": 40901368, "NOM_OUVRAG": "GAHON", "TYPE_OUVRA": null, "SP_OUVRAGE": null, "CLASSE": "C" }, "geometry": { "type": "MultiLineString", "coordinates": [ [ [ -0.23189312552858, 43.733672287253505 ], [ -0.231698277955265, 43.734172975948965 ], [ -0.231248511851091, 43.734576552923912 ], [ -0.231248511851091, 43.734576552923912 ] ] ] } },
{ "type": "Feature", "properties": { "fid": 51, "ID_OUVRAGE": 40901844, "NOM_OUVRAG": "PEYRELONGUE", "TYPE_OUVRA": null, "SP_OUVRAGE": null, "CLASSE": "C" }, "geometry": { "type": "MultiLineString", "coordinates": [ [ [ -0.24301129311647, 43.847775907922433 ], [ -0.242633732551782, 43.848859639915794 ], [ -0.242633732551782, 43.848859639915794 ] ] ] } },
{ "type": "Feature", "properties": { "fid": 52, "ID_OUVRAGE": 40901902, "NOM_OUVRAG": "CABE", "TYPE_OUVRA": null, "SP_OUVRAGE": null, "CLASSE": "C" }, "geometry": { "type": "MultiLineString", "coordinates": [ [ [ 0.010579385068011, 43.91352279965691 ], [ 0.011100062481246, 43.914607999176553 ] ] ] } },
{ "type": "Feature", "properties": { "fid": 53, "ID_OUVRAGE": 40900580, "NOM_OUVRAG": "GUIRAT", "TYPE_OUVRA": null, "SP_OUVRAGE": null, "CLASSE": "C" }, "geometry": { "type": "MultiLineString", "coordinates": [ [ [ -0.395707086647012, 43.645318522591538 ], [ -0.394505452943851, 43.644750235291035 ] ] ] } },
{ "type": "Feature", "properties": { "fid": 54, "ID_OUVRAGE": 40900014, "NOM_OUVRAG": "LAPOQUE", "TYPE_OUVRA": null, "SP_OUVRAGE": null, "CLASSE": "C" }, "geometry": { "type": "MultiLineString", "coordinates": [ [ [ -0.530604651882082, 43.807014725859901 ], [ -0.530032551369666, 43.806982111049507 ], [ -0.529427459010048, 43.80698709829359 ], [ -0.529201112309289, 43.806998083498982 ], [ -0.527472112166926, 43.807675189351059 ] ] ] } },
{ "type": "Feature", "properties": { "fid": 55, "ID_OUVRAGE": 40900123, "NOM_OUVRAG": "PUNTET", "TYPE_OUVRA": null, "SP_OUVRAGE": null, "CLASSE": "C" }, "geometry": { "type": "MultiLineString", "coordinates": [ [ [ -1.37513778695146, 43.510143259957211 ], [ -1.374699741214927, 43.509941730874061 ], [ -1.374439074007376, 43.510114169751219 ] ] ] } },
{ "type": "Feature", "properties": { "fid": 56, "ID_OUVRAGE": 40900582, "NOM_OUVRAG": "LES HOUNTETTES", "TYPE_OUVRA": null, "SP_OUVRAGE": null, "CLASSE": "C" }, "geometry": { "type": "MultiLineString", "coordinates": [ [ [ -0.493415152352632, 43.600941069753432 ], [ -0.492224704455427, 43.601136882016561 ] ] ] } },
{ "type": "Feature", "properties": { "fid": 57, "ID_OUVRAGE": 40901772, "NOM_OUVRAG": "PEHOURCAT", "TYPE_OUVRA": null, "SP_OUVRAGE": null, "CLASSE": "C" }, "geometry": { "type": "MultiLineString", "coordinates": [ [ [ -0.295321741831693, 43.927073219655306 ], [ -0.294466058035, 43.926928209829782 ] ] ] } },
{ "type": "Feature", "properties": { "fid": 58, "ID_OUVRAGE": 40901904, "NOM_OUVRAG": "RIBERE", "TYPE_OUVRA": null, "SP_OUVRAGE": null, "CLASSE": "C" }, "geometry": { "type": "MultiLineString", "coordinates": [ [ [ 0.005326396457845, 43.926009416073633 ], [ 0.005018711539528, 43.92511940887028 ], [ 0.005266169458249, 43.924351080820927 ] ] ] } },
{ "type": "Feature", "properties": { "fid": 59, "ID_OUVRAGE": 40900153, "NOM_OUVRAG": "YRIEUX", "TYPE_OUVRA": null, "SP_OUVRAGE": null, "CLASSE": "C" }, "geometry": { "type": "MultiLineString", "coordinates": [ [ [ -1.423538946901624, 43.572718801587349 ], [ -1.423468381171088, 43.573060453144443 ], [ -1.423055391789668, 43.573215510862518 ], [ -1.422772703189705, 43.573126758094652 ] ] ] } },
{ "type": "Feature", "properties": { "fid": 60, "ID_OUVRAGE": 40900355, "NOM_OUVRAG": "LORTA", "TYPE_OUVRA": null, "SP_OUVRAGE": null, "CLASSE": "C" }, "geometry": { "type": "MultiLineString", "coordinates": [ [ [ -1.223420829297207, 43.578853233224365 ], [ -1.222530489153654, 43.578395596777987 ] ] ] } },
{ "type": "Feature", "properties": { "fid": 61, "ID_OUVRAGE": 40901853, "NOM_OUVRAG": "GRAND ETANG", "TYPE_OUVRA": null, "SP_OUVRAGE": null, "CLASSE": "C" }, "geometry": { "type": "MultiLineString", "coordinates": [ [ [ -0.27292407987787, 43.826585428196317 ], [ -0.270921281815469, 43.828739077911678 ] ] ] } },
{ "type": "Feature", "properties": { "fid": 62, "ID_OUVRAGE": 40901746, "NOM_OUVRAG": "GAYROSSE", "TYPE_OUVRA": null, "SP_OUVRAGE": null, "CLASSE": "C" }, "geometry": { "type": "MultiLineString", "coordinates": [ [ [ -0.182574000390807, 43.949404255209039 ], [ -0.181995603883757, 43.949717517344922 ], [ -0.181244277296155, 43.949791154886292 ], [ -0.180787839905073, 43.94978092171295 ], [ -0.180522706600682, 43.949814518841201 ], [ -0.180318840522539, 43.949895733611065 ] ] ] } },
{ "type": "Feature", "properties": { "fid": 63, "ID_OUVRAGE": 40901607, "NOM_OUVRAG": "ASA DE BRETAGNE-BASCONS", "TYPE_OUVRA": null, "SP_OUVRAGE": null, "CLASSE": "C" }, "geometry": { "type": "MultiLineString", "coordinates": [ [ [ -0.451040401571224, 43.843684572392952 ], [ -0.450541425210656, 43.845671693290392 ] ] ] } }
]
}
